name,latitude,longitude,street,city,state,zip,phone,website
Trader Joe's Palm Desert (3),33.7274599,-116.3966112,44250 Town Center Way,Palm Desert,CA,92260,760-340-2291,https://locations.traderjoes.com/ca/palm-desert/3/
Trader Joe's La Habra,33.9186903,-117.9690152,"2101 W. Imperial Hwy, Suite A",La Habra,CA,90631,562-266-1428,https://locations.traderjoes.com/ca/la-habra/5/
Trader Joe's Oceanside (22),33.1839061,-117.3335057,2570 Vista Way,Oceanside,CA,92054,760-433-9994,https://locations.traderjoes.com/ca/oceanside/22/
Trader Joe's San Ramon (246),37.7641646,-121.9521083,300 Market Place,San Ramon,CA,94583,925-275-8140,https://locations.traderjoes.com/ca/san-ramon/246/
Trader Joe's Rocklin (228),38.8028703,-121.209243,5116 Commons Dr. #103,Rocklin,CA,95677,916-660-9820,https://locations.traderjoes.com/ca/rocklin/228/
Trader Joe's Thousand Oaks (196),34.2164343,-118.8894062,451 Avenida De Los Arboles,Thousand Oaks,CA,91360,805-492-7107,https://locations.traderjoes.com/ca/thousand-oaks/196/
Trader Joe's Newbury Park (243),34.1800942,-118.9538252,125 N Reino Road,Thousand Oaks,CA,91320,805-375-1984,https://locations.traderjoes.com/ca/thousand-oaks/243/
Trader Joe's Simi Valley (30),34.2810581,-118.7384764,2975-A Cochran St,Simi Valley,CA,93065,805-520-3135,https://locations.traderjoes.com/ca/simi-valley/30/
Trader Joe's Aliso Viejo (195),33.5774874,-117.7247835,26541 Aliso Creek Rd,Aliso Viejo,CA,92656,949-643-5531,https://locations.traderjoes.com/ca/aliso-viejo/195/
Trader Joe's Novato (198),38.1118504,-122.5681231,7514 Redwood Blvd,Novato,CA,94945,415-898-9359,https://locations.traderjoes.com/ca/novato/198/
Trader Joe's Walnut Creek (123),37.8932731,-122.0607009,1372 S California Blvd,Walnut Creek,CA,94596,925-945-1674,https://locations.traderjoes.com/ca/walnut-creek/123/
Trader Joe's Olympic Blvd (215),34.0337173,-118.4493138,11755 Olympic Blvd,Los Angeles,CA,90064,310-477-5949,https://locations.traderjoes.com/ca/los-angeles/215/
Trader Joe's Sunset Blvd (192),34.0980119,-118.3647592,8000 W Sunset Blvd,Los Angeles,CA,90046,323-822-7663,https://locations.traderjoes.com/ca/los-angeles/192/
Trader Joe's West Los Angeles - Sepulveda (119),34.0204805,-118.4221063,3456 S Sepulveda Blvd,Los Angeles,CA,90034,310-836-2458,https://locations.traderjoes.com/ca/los-angeles/119/
Trader Joe's West Los Angeles (7),34.030059,-118.4214825,10850 National Blvd,Los Angeles,CA,90064,310-470-1917,https://locations.traderjoes.com/ca/los-angeles/7/
Trader Joe's USC Village (250),34.0257349,-118.284175,3131 S Hoover Street,Los Angeles,CA,90089,213-749-1497,https://locations.traderjoes.com/ca/los-angeles/250/
Trader Joe's Los Angeles - 3rd & Fairfax (240),34.0721276,-118.361769,175 South Fairfax Ave,Los Angeles,CA,90036,323-931-4012,https://locations.traderjoes.com/ca/los-angeles/240/
Trader Joe's Westwood (234),34.0622644,-118.443835,1000 Glendon Ave,Los Angeles,CA,90024,310-824-1495,https://locations.traderjoes.com/ca/los-angeles/234/
Trader Joe's Silver Lake (17),34.1078841,-118.2717732,2738 Hyperion Ave,Los Angeles,CA,90027,323-665-6774,https://locations.traderjoes.com/ca/los-angeles/17/
Trader Joe's Hollywood (206),34.1000536,-118.3265144,1600 N Vine St,Los Angeles,CA,90028,323-856-0689,https://locations.traderjoes.com/ca/los-angeles/206/
Trader Joe's Los Angeles - Burton Way (237),34.0711655,-118.3770739,8500 Burton Way,Los Angeles,CA,90048,310-248-2984,https://locations.traderjoes.com/ca/los-angeles/237/
Trader Joe's Los Angeles (31),34.0691505,-118.3444162,263 S La Brea Ave,Los Angeles,CA,90036,323-965-1989,https://locations.traderjoes.com/ca/los-angeles/31/
Trader Joe's Sunnyvale (68),37.368166,-122.036101,316 West El Camino Real,Sunnyvale,CA,94087,408-736-7573,https://locations.traderjoes.com/ca/sunnyvale/68/
Trader Joe's San Mateo - Hillsdale (245),37.5354584,-122.2981725,45 W Hillsdale Blvd,San Mateo,CA,94403,650-286-1509,https://locations.traderjoes.com/ca/san-mateo/245/
Trader Joe's San Mateo - Grant St (67),37.5545382,-122.3025133,1820-22 S Grant Street,San Mateo,CA,94402,650-570-6140,https://locations.traderjoes.com/ca/san-mateo/67/
Trader Joe's Los Gatos (181),37.2441186,-121.9579316,15466 Los Gatos Blvd,Los Gatos,CA,95032,408-356-2324,https://locations.traderjoes.com/ca/los-gatos/181/
Trader Joe's La Jolla (20),32.8649117,-117.2318811,8657 Villa la Jolla Dr,La Jolla,CA,92037,858-546-8629,https://locations.traderjoes.com/ca/la-jolla/20/
Trader Joe's Clovis (180),36.8436127,-119.7293094,1077 N Willow Ave,Clovis,CA,93611,559-325-3120,https://locations.traderjoes.com/ca/clovis/180/
Trader Joe's Westchester (33),33.9587392,-118.3966617,8645 S Sepulveda,Westchester,CA,90045,310-338-9238,https://locations.traderjoes.com/ca/westchester/33/
Trader Joe's Manhattan Beach - Rosecrans Blvd (106),33.9004811,-118.3812106,1800 Rosecrans Blvd,Manhattan Beach,CA,90266,310-725-9800,https://locations.traderjoes.com/ca/manhattan-beach/106/
Trader Joe's Manhattan Beach Blvd (34),33.8876384,-118.379888,1821 Manhattan Beach Blvd,Manhattan Beach,CA,90266,310-372-1274,https://locations.traderjoes.com/ca/manhattan-beach/34/
Trader Joe's San Clemente (16),33.4580519,-117.6527485,638 Camino de Los Mares,San Clemente,CA,92673,949-240-9996,https://locations.traderjoes.com/ca/san-clemente/16/
Trader Joe's Santa Maria (239),34.9380236,-120.4213274,1303 S Bradley Rd,Santa Maria,CA,93454,805-925-1657,https://locations.traderjoes.com/ca/santa-maria/239/
Trader Joe's Cerritos (104),33.8692417,-118.0581293,12861 Towne Center Dr,Cerritos,CA,90703,562-402-5148,https://locations.traderjoes.com/ca/cerritos/104/
Trader Joe's Camarillo (114),34.2203367,-119.0507035,363 Carmen Dr,Camarillo,CA,93010,805-388-1925,https://locations.traderjoes.com/ca/camarillo/114/
Trader Joe's Eagle Rock (55),34.1393242,-118.2002048,1566 Colorado Blvd,Eagle Rock,CA,90041,323-257-6422,https://locations.traderjoes.com/ca/eagle-rock/55/
Trader Joe's Whittier (48),33.9492806,-118.0055254,15025 E Whittier Blvd,Whittier,CA,90603,562-698-1642,https://locations.traderjoes.com/ca/whittier/48/
Trader Joe's Pasadena (East) (32),34.1353546,-117.9406052,3035 E Huntington Dr,Pasadena,CA,91107,626-356-2963,https://locations.traderjoes.com/ca/pasadena/32/
Trader Joe's Pasadena - S Lake Ave (179),34.1400495,-118.1329065,345 S Lake Ave,Pasadena,CA,91101,626-395-9553,https://locations.traderjoes.com/ca/pasadena/179/
Trader Joe's Pasadena (51),34.1351409,-118.1468743,610 S Arroyo Pkwy,Pasadena,CA,91105,626-568-9254,https://locations.traderjoes.com/ca/pasadena/51/
Trader Joe's Hastings Ranch (171),34.1536988,-118.0781964,467 N Rosemead Blvd,Pasadena,CA,91107,626-351-3399,https://locations.traderjoes.com/ca/pasadena/171/
Trader Joe's Riverside (15),33.9559323,-117.3884753,6225 Riverside Plaza,Riverside,CA,92506,951-781-2378,https://locations.traderjoes.com/ca/riverside/15/
Trader Joe's Brea (11),33.9105696,-117.8700159,2500 E Imperial Hwy,Brea,CA,92821,714-257-1180,https://locations.traderjoes.com/ca/brea/11/
Trader Joe's Escondido (105),33.1000238,-117.074828,1885 S Centre City Pkwy,Escondido,CA,92025,760-233-4020,https://locations.traderjoes.com/ca/escondido/105/
Trader Joe's Woodland Hills (209),34.1672602,-118.5923118,21055 Ventura Blvd,Woodland Hills,CA,91364,818-712-9475,https://locations.traderjoes.com/ca/woodland-hills/209/
Trader Joe's West Hollywood (40),34.0905924,-118.349205,7310 Santa Monica Blvd,West Hollywood,CA,90046,323-969-8048,https://locations.traderjoes.com/ca/west-hollywood/40/
Trader Joe's West Hollywood (173),34.0880939,-118.3795672,8611 Santa Monica Blvd,West Hollywood,CA,90069,310-657-0152,https://locations.traderjoes.com/ca/west-hollywood/173/
Trader Joe's Long Beach - Bellflower Blvd (194),33.7967761,-118.1228974,2222 North Bellflower Blvd,Long Beach,CA,90815,562-596-2514,https://locations.traderjoes.com/ca/long-beach/194/
Trader Joe's Long Beach - PCH (43),33.7566977,-118.1097028,6451 E Pacific Coast  Hwy,Long Beach,CA,90803,562-596-4388,https://locations.traderjoes.com/ca/long-beach/43/
Trader Joe's Long Beach - Bixby Knolls (116),33.83553920000001,-118.1884404,4210 Long Beach Blvd,Long Beach,CA,90807,562-422-1020,https://locations.traderjoes.com/ca/long-beach/116/
Trader Joe's El Cerrito (108),37.8994807,-122.3004275,225 El Cerrito Plaza,El Cerrito,CA,94530,510-524-7609,https://locations.traderjoes.com/ca/el-cerrito/108/
Trader Joe's Petaluma (107),38.2480431,-122.6280104,169 N McDowell Blvd,Petaluma,CA,94954,707-769-2782,https://locations.traderjoes.com/ca/petaluma/107/
Trader Joe's San Francisco - Pacific Place (225),37.7855248,-122.4057903,10 4th Street,San Francisco,CA,94103,415-536-7801,https://locations.traderjoes.com/ca/san-francisco/225/
Trader Joe's San Francisco - Nob Hill (200),37.7906365,-122.4179683,1095 Hyde St,San Francisco,CA,94109,415-292-7665,https://locations.traderjoes.com/ca/san-francisco/200/
Trader Joe's San Francisco - Stonestown (236),37.7266714,-122.4761885,265 Winston Dr,San Francisco,CA,94132,415-665-1835,https://locations.traderjoes.com/ca/san-francisco/236/
Trader Joe's San Francisco (100),37.7835096,-122.4478583,3 Masonic Ave,San Francisco,CA,94118,415-346-9964,https://locations.traderjoes.com/ca/san-francisco/100/
Trader Joe's San Francisco - 9th St (78),37.7711099,-122.4073786,555 9th St,San Francisco,CA,94103,415-863-1292,https://locations.traderjoes.com/ca/san-francisco/78/
Trader Joe's San Francisco - North Beach (19),37.8055155,-122.413738,401 Bay St,San Francisco,CA,94133,415-351-1013,https://locations.traderjoes.com/ca/san-francisco/19/
Trader Joe's Palo Alto (207),37.4389939,-122.1588204,855 El Camino Real,Palo Alto,CA,94301,650-327-7018,https://locations.traderjoes.com/ca/palo-alto/207/
Trader Joe's Berkeley (186),37.8718916,-122.2733198,1885 University Ave,Berkeley,CA,94703,510-204-9074,https://locations.traderjoes.com/ca/berkeley/186/
Trader Joe's Hermosa Beach (248),33.8633933,-118.3920277,1100 Pacific Coast Hwy,Hermosa Beach,CA,90254,310-318-1767,https://locations.traderjoes.com/ca/hermosa-beach/248/
Trader Joe's Chatsworth (184),34.2582554,-118.5787951,10330 Mason Ave,Chatsworth,CA,91311,818-341-3010,https://locations.traderjoes.com/ca/chatsworth/184/
Trader Joe's Newport Beach (125),33.5690959,-117.8334445,8086 E Pacific Coast Hwy,Newport Beach,CA,92657,949-494-7404,https://locations.traderjoes.com/ca/newport-beach/125/
Trader Joe's Lafayette (115),37.8902393,-122.126966,3649 Mt Diablo Blvd,Lafayette,CA,94549,925-299-9344,https://locations.traderjoes.com/ca/lafayette/115/
Trader Joe's Alameda (109),37.7586044,-122.2529943,2217 South Shore Center,Alameda,CA,94501,510-769-5450,https://locations.traderjoes.com/ca/alameda/109/
Trader Joe's Costa Mesa (35),33.6367934,-117.9245798,640 W 17th St,Costa Mesa,CA,92627,949-642-5134,https://locations.traderjoes.com/ca/costa-mesa/35/
Trader Joe's La Canada (42),34.200037,-118.1884204,475 Foothill Blvd,La Canada,CA,91011,818-790-6373,https://locations.traderjoes.com/ca/la-canada/42/
Trader Joe's Encino (56),34.17180030000001,-118.5177338,17640 Burbank Blvd,Encino,CA,91316,818-990-7751,https://locations.traderjoes.com/ca/encino/56/
Trader Joe's Fairfield (101),38.2641547,-122.0522272,1350 Gateway Blvd,Fairfield,CA,94533,707-434-0144,https://locations.traderjoes.com/ca/fairfield/101/
Trader Joe's Mission Viejo (126),33.5930519,-117.658427,25410 Marguerite Pkwy,Mission Viejo,CA,92692,949-581-5638,https://locations.traderjoes.com/ca/mission-viejo/126/
Trader Joe's Castro Valley (84),37.6853639,-122.073003,22224 Redwood Road,Castro Valley,CA,94546,510-538-2738,https://locations.traderjoes.com/ca/castro-valley/84/
Trader Joe's Redlands (99),34.0605011,-117.181021,552 Orange St,Redlands,CA,92374,909-798-3888,https://locations.traderjoes.com/ca/redlands/99/
Trader Joe's Napa (128),38.3227963,-122.3058353,3654 Bel Aire Plaza,Napa,CA,94558,707-256-0806,https://locations.traderjoes.com/ca/napa/128/
Trader Joe's Emeryville (72),37.8369813,-122.2942301,5700 Christie Ave,Emeryville,CA,94608,510-658-8091,https://locations.traderjoes.com/ca/emeryville/72/
Trader Joe's Morgan Hill (202),37.1311381,-121.6382032,17035 Laurel Rd,Morgan Hill,CA,95037,408-778-6409,https://locations.traderjoes.com/ca/morgan-hill/202/
Trader Joe's San Luis Obispo (41),35.2451064,-120.6732376,3977 Higuera Street,San Luis Obispo,CA,93401,805-783-2780,https://locations.traderjoes.com/ca/san-luis-obispo/41/
Trader Joe's Rancho Cucamonga (217),34.1377362,-117.5741371,6401 Haven Ave,Rancho Cucamonga,CA,91737,909-476-1410,https://locations.traderjoes.com/ca/rancho-cucamonga/217/
Trader Joe's South Pasadena (18),34.1153029,-118.162965,613 Mission St,S. Pasadena,CA,91030,626-441-6263,https://locations.traderjoes.com/ca/s.-pasadena/18/
Trader Joe's San Carlos (174),37.496397,-122.2485804,1482 El Camino Real,San Carlos,CA,94070,650-594-2138,https://locations.traderjoes.com/ca/san-carlos/174/
Trader Joe's West Hills (50),34.1919487,-118.6258409,6751 Fallbrook Ave,West Hills,CA,91307,818-347-2591,https://locations.traderjoes.com/ca/west-hills/50/
Trader Joe's Pacific Grove (79),36.6055799,-121.9219308,1170 Forest Ave,Pacific Grove,CA,93950,831-656-0180,https://locations.traderjoes.com/ca/pacific-grove/79/
Trader Joe's Roseville (80),38.7462886,-121.274886,1117 Roseville Square,Roseville,CA,95678,916-784-9084,https://locations.traderjoes.com/ca/roseville/80/
Trader Joe's Menlo Park (69),37.451225,-122.1835384,720 Menlo Ave,Menlo Park,CA,94025,650-323-2134,https://locations.traderjoes.com/ca/menlo-park/69/
Trader Joe's South San Francisco (187),37.664736,-122.4461046,301 MC Lellan Dr,South San Francisco,CA,94080,650-583-6401,https://locations.traderjoes.com/ca/south-san-francisco/187/
Trader Joe's Chino Hills (216),34.0005411,-117.7321143,13911 Peyton Drive,Chino Hills,CA,91709,909-627-1404,https://locations.traderjoes.com/ca/chino-hills/216/
Trader Joe's Redondo Beach (38),33.8185485,-118.3862774,1761 S Elena Ave,Redondo Bch.,CA,90277,310-316-1745,https://locations.traderjoes.com/ca/redondo-bch./38/
Trader Joe's Claremont (214),34.1073905,-117.7220289,475 W Foothill Blvd,Claremont,CA,91711,909-625-8784,https://locations.traderjoes.com/ca/claremont/214/
Trader Joe's Elk Grove (190),38.4066009,-121.4205286,9670 Bruceville Road,Elk Grove,CA,95757,916-686-9980,https://locations.traderjoes.com/ca/elk-grove/190/
Trader Joe's Santa Barbara (183),34.4389565,-119.7289492,3025 De La Vina St,Santa Barbara,CA,93105,805-563-7383,https://locations.traderjoes.com/ca/santa-barbara/183/
Trader Joe's Santa Barbara (59),34.4249756,-119.6817021,222 North Milpas Street,Santa Barbara,CA,93103,805-560-1182,https://locations.traderjoes.com/ca/santa-barbara/59/
Trader Joe's Westlake Village (58),34.1639323,-118.8250653,3835 E Thousand Oaks Blvd,Westlake Village,CA,91362,805-494-5040,https://locations.traderjoes.com/ca/westlake-village/58/
Trader Joe's San Dimas (28),34.1034617,-117.8213779,856 W Arrow Hwy,San Dimas,CA,91773,909-305-4757,https://locations.traderjoes.com/ca/san-dimas/28/
Trader Joe's Rancho Santa Margarita (27),33.6424952,-117.5953482,30652 Santa Margarita Pkwy,Rancho Santa Margarita,CA,92688,949-888-3640,https://locations.traderjoes.com/ca/rancho-santa-margarita/27/
Trader Joe's Santa Ana (113),33.7011809,-117.8842077,3329 S Bristol St,Santa Ana,CA,92704,714-424-9304,https://locations.traderjoes.com/ca/santa-ana/113/
Trader Joe's Fair Oaks (71),38.6620478,-121.2738131,5309 Sunrise Blvd,Fair Oaks,CA,95628,916-863-1744,https://locations.traderjoes.com/ca/fair-oaks/71/
Trader Joe's Sherman Oaks (49),34.1579742,-118.4408137,14119 Riverside Dr,Sherman Oaks,CA,91423,818-789-2771,https://locations.traderjoes.com/ca/sherman-oaks/49/
Trader Joe's Pinole (230),37.9952651,-122.2867436,2742 Pinole Valley Rd,Pinole,CA,94564,510-222-3501,https://locations.traderjoes.com/ca/pinole/230/
Trader Joe's Milpitas (229),37.4125042,-121.8998239,1306 Great Mall Pkwy,Milpitas,CA,95035,408-942-6957,https://locations.traderjoes.com/ca/milpitas/229/
Trader Joe's Bakersfield (14),35.3556172,-119.0934994,8200 Stockdale Hwy,Bakersfield,CA,93311,661-837-8863,https://locations.traderjoes.com/ca/bakersfield/14/
Trader Joe's Montrose (52),34.2069835,-118.2331706,2462 Honolulu Ave,Montrose,CA,91020,818-957-3613,https://locations.traderjoes.com/ca/montrose/52/
Trader Joe's Arroyo Grande (117),35.125703,-120.5940538,955 Rancho Pkwy,Arroyo Grande,CA,93420,805-474-6114,https://locations.traderjoes.com/ca/arroyo-grande/117/
Trader Joe's Wilshire (253),34.0333664,-118.4804721,2300 Wilshire Blvd #101,Santa Monica,CA,90403,310-264-2223,https://locations.traderjoes.com/ca/santa-monica/253/
Trader Joe's Santa Monica (6),34.02636,-118.4557734,3212 Pico Blvd,Santa Monica,CA,90405,310-581-0253,https://locations.traderjoes.com/ca/santa-monica/6/
Trader Joe's Santa Monica (256),34.0157655,-118.4919662,500 Broadway,Santa Monica,CA,90401,310-912-6877,https://locations.traderjoes.com/ca/santa-monica/256/
Trader Joe's Chico (199),39.7593327,-121.8465736,801 East Ave,Chico,CA,95926,530-343-9920,https://locations.traderjoes.com/ca/chico/199/
Trader Joe's Temecula (102),33.5288206,-117.1561498,40665 Winchester Rd,Temecula,CA,92591,951-296-9964,https://locations.traderjoes.com/ca/temecula/102/
Trader Joe's Palmdale (185),34.6003122,-118.149297,39507 10th St W,Palmdale,CA,93551,661-947-2890,https://locations.traderjoes.com/ca/palmdale/185/
Trader Joe's Folsom (172),38.6724426,-121.1559149,850 East Bidwell,Folsom,CA,95630,916-817-8820,https://locations.traderjoes.com/ca/folsom/172/
Trader Joe's Granada Hills (44),34.272659,-118.5016054,11114 Balboa Blvd,Granada Hills,CA,91344,818-368-6461,https://locations.traderjoes.com/ca/granada-hills/44/
Trader Joe's Tustin (197),33.7468959,-117.8095278,1198 Irvine Blvd.,Tustin,CA,92780,714-505-3289,https://locations.traderjoes.com/ca/tustin/197/
Trader Joe's Danville (65),37.8233796,-122.003646,85 Railroad Ave,Danville,CA,94526,925-838-5757,https://locations.traderjoes.com/ca/danville/65/
Trader Joe's Marina Del Rey (205),33.9795313,-118.441315,4675 Admiralty Way,Marina Del Rey,CA,90292,310-301-4461,https://locations.traderjoes.com/ca/marina-del-rey/205/
Trader Joe's Brentwood (201),37.9611463,-121.7501075,5451 Lone Tree Way,Brentwood,CA,94513,925-516-3044,https://locations.traderjoes.com/ca/brentwood/201/
Trader Joe's Corona (213),33.8114911,-117.5065624,2790 Cabot Dr,Corona,CA,92883,951-603-0299,https://locations.traderjoes.com/ca/corona/213/
Trader Joe's Calabasas (254),34.1556665,-118.6449836,23741 Calabasas Rd.,Calabasas,CA,91302,818-591-6758,https://locations.traderjoes.com/ca/calabasas/254/
Trader Joe's Livermore (208),37.6803533,-121.7816937,1122 A East Stanley Blvd,Livermore,CA,94550,925-243-1947,https://locations.traderjoes.com/ca/livermore/208/
Trader Joe's San Rafael (61),37.9695393,-122.5164701,337 3rd St,San Rafael,CA,94901,415-454-9530,https://locations.traderjoes.com/ca/san-rafael/61/
Trader Joe's Larkspur (235),37.9378615,-122.5149604,2052 Redwood Hwy,Greenbrae,CA,94904,415-945-7955,https://locations.traderjoes.com/ca/greenbrae/235/
Trader Joe's Mountain View (81),37.4022973,-122.1106157,590 Showers Dr,Mountain View,CA,94040,650-917-1013,https://locations.traderjoes.com/ca/mountain-view/81/
Trader Joe's La Quinta (189),33.711981,-116.2942733,46400 Washington St,La Quinta,CA,92253,760-777-1553,https://locations.traderjoes.com/ca/la-quinta/189/
Trader Joe's North Hollywood (252),34.1818815,-118.3959657,6130 Laurel Canyon Bl,North Hollywood,CA,91606,818-762-2963,https://locations.traderjoes.com/ca/north-hollywood/252/
Trader Joe's Millbrae (170),37.6038473,-122.3957937,765 Broadway,Millbrae,CA,94030,650-259-9142,https://locations.traderjoes.com/ca/millbrae/170/
Trader Joe's Monterey (204),36.5965585,-121.8943519,570 Munras Ave,Monterey,CA,93940,831-372-2010,https://locations.traderjoes.com/ca/monterey/204/
Trader Joe's Studio City (122),34.1429443,-118.393033,11976 Ventura Blvd,Studio City,CA,91604,818-509-0168,https://locations.traderjoes.com/ca/studio-city/122/
Trader Joe's Davis (182),38.5467319,-121.7614861,885 Russell Blvd,Davis,CA,95616,530-757-2693,https://locations.traderjoes.com/ca/davis/182/
Trader Joe's Ventura (45),34.2572008,-119.2118273,1795 S. Victoria Ave,Ventura,CA,93003,805-650-9977,https://locations.traderjoes.com/ca/ventura/45/
Trader Joe's Ventura - Midtown (218),34.27164,-119.2490582,103 S Mills Rd,Ventura,CA,93003,805-658-2664,https://locations.traderjoes.com/ca/ventura/218/
Trader Joe's Carlsbad (220),33.1266131,-117.2546598,2629 Gateway Rd,Carlsbad,CA,92009,760-603-8473,https://locations.traderjoes.com/ca/carlsbad/220/
Trader Joe's Laguna Niguel - Ocean Ranch (103),33.5183111,-117.6838768,32351 Street of the Golden Lantern,Laguna Niguel,CA,92677,949-493-8599,https://locations.traderjoes.com/ca/laguna-niguel/103/
Trader Joe's Templeton (211),35.5419292,-120.715191,1111 Rossi Road,Templeton,CA,93465,805-434-9562,https://locations.traderjoes.com/ca/templeton/211/
Trader Joe's Concord (83),37.9368265,-122.024742,785 Oak Grove Rd,Concord,CA,94518,925-521-1134,https://locations.traderjoes.com/ca/concord/83/
Trader Joe's Concord (60),37.979231,-122.0561341,1150 Concord Ave,Concord,CA,94520,925-689-2990,https://locations.traderjoes.com/ca/concord/60/
Trader Joe's Goleta (110),34.4406928,-119.825238,5767 Calle Real,Goleta,CA,93117,805-692-2234,https://locations.traderjoes.com/ca/goleta/110/
Trader Joe's Chula Vista (120),32.65149,-116.9705123,878 Eastlake Pkwy,Chula Vista,CA,91914,619-656-5370,https://locations.traderjoes.com/ca/chula-vista/120/
Trader Joe's Oakland - Rockridge (231),37.845625,-122.2527156,5727 College Ave,Oakland,CA,94618,510-923-9428,https://locations.traderjoes.com/ca/oakland/231/
Trader Joe's Oakland - Lakeshore (203),37.8097414,-122.2442512,3250 Lakeshore Ave,Oakland,CA,94610,510-238-9076,https://locations.traderjoes.com/ca/oakland/203/
Trader Joe's Torrance - Hawthorne Blvd (121),33.8522499,-118.3532856,19720 Hawthorne Blvd,Torrance,CA,90503,310-793-8585,https://locations.traderjoes.com/ca/torrance/121/
Trader Joe's Torrance - Rolling Hills Plaza (29),33.790641,-118.330186,2545 Pacific Coast Hwy,Torrance,CA,90505,310-326-9520,https://locations.traderjoes.com/ca/torrance/29/
Trader Joe's Irvine - Woodbury Town Center (210),33.6998684,-117.7418594,6222 Irvine Blvd,Irvine,CA,92620,949-551-6402,https://locations.traderjoes.com/ca/irvine/210/
Trader Joe's Irvine - University Ctr (111),33.6504666,-117.8375077,4225 Campus Dr,Irvine,CA,92612,949-509-6138,https://locations.traderjoes.com/ca/irvine/111/
Trader Joe's Irvine -  Walnut Village Ctr (37),33.7061608,-117.7884205,14443 Culver Dr,Irvine,CA,92604,949-857-8108,https://locations.traderjoes.com/ca/irvine/37/
Trader Joe's Stockton (76),38.00913,-121.3228167,6535 Pacific Ave,Stockton,CA,95207,209-951-7597,https://locations.traderjoes.com/ca/stockton/76/
Trader Joe's Cathedral City (118),33.7892005,-116.4830524,67720 E Palm Canyon Dr,Cathedral City,CA,92234,760-202-0090,https://locations.traderjoes.com/ca/cathedral-city/118/
Trader Joe's Glendale (53),34.1598391,-118.2545353,103 E Glenoaks Blvd,Glendale,CA,91207,818-507-8192,https://locations.traderjoes.com/ca/glendale/53/
Trader Joe's Sacramento (70),38.61859690000001,-121.4001675,2625 Marconi Ave,Sacramento,CA,95821,916-481-8797,https://locations.traderjoes.com/ca/sacramento/70/
Trader Joe's Sacramento (175),38.5603946,-121.4448139,5000 Folsom Blvd,Sacramento,CA,95819,916-456-1853,https://locations.traderjoes.com/ca/sacramento/175/
Trader Joe's Fremont (77),37.5434679,-121.9861519,39324 Argonaut Way,Fremont,CA,94538,510-794-1386,https://locations.traderjoes.com/ca/fremont/77/
Trader Joe's Santa Cruz (193),36.974544,-122.0246976,700 Front St,Santa Cruz,CA,95060,831-425-0140,https://locations.traderjoes.com/ca/santa-cruz/193/
Trader Joe's Rancho Palos Verdes (233),33.7493301,-118.4066803,31176 Hawthorne Blvd,Rancho Palos Verdes,CA,90275,310-544-1727,https://locations.traderjoes.com/ca/rancho-palos-verdes/233/
Trader Joe's Rancho Palos Verdes - S. Western Ave. (57),33.7565157,-118.3116513,28901 S Western Ave,Rancho Palos Verdes,CA,90275,310-832-1241,https://locations.traderjoes.com/ca/rancho-palos-verdes/57/
Trader Joe's Daly City (74),37.7000041,-122.482237,417 Westlake Center,Daly City,CA,94015,650-755-3825,https://locations.traderjoes.com/ca/daly-city/74/
Trader Joe's Encinitas (25),33.0471008,-117.2558081,115 N El Camino Real,Encinitas,CA,92024,760-634-2114,https://locations.traderjoes.com/ca/encinitas/25/
Trader Joe's Huntington Beach - Brookhurst (241),33.6512647,-117.9548614,21431 Brookhurst St,Huntington Beach,CA,92646,714-968-4070,https://locations.traderjoes.com/ca/huntington-beach/241/
Trader Joe's Huntington Harbour (244),33.7175194,-118.05145,16821 Algonquin St,Huntington Beach,CA,92649,714-846-7307,https://locations.traderjoes.com/ca/huntington-beach/244/
Trader Joe's Huntington Beach (47),33.6925294,-117.9927157,18681 Main St,Huntington Beach,CA,92648,714-848-9640,https://locations.traderjoes.com/ca/huntington-beach/47/
Trader Joe's Burbank (124),34.1749591,-118.2988641,214 E Alameda Ave,Burbank,CA,91502,818-848-4299,https://locations.traderjoes.com/ca/burbank/124/
Trader Joe's Campbell (73),37.2890018,-121.9325588,1875 Bascom Ave,Campbell,CA,95008,408-369-7823,https://locations.traderjoes.com/ca/campbell/73/
Trader Joe's San Diego - Hillcrest (26),32.7498752,-117.1538189,1090 University Avenue,San Diego,CA,92103,619-296-3122,https://locations.traderjoes.com/ca/san-diego/26/
Trader Joe's Scripps Ranch (221),32.9144947,-117.1151691,9850 Hibert St,San Diego,CA,92131,858-549-9185,https://locations.traderjoes.com/ca/san-diego/221/
Trader Joe's San Diego - Carmel Mtn Ranch (23),32.9821123,-117.0750506,11955 Carmel Mountain Rd,San Diego,CA,92128,858-673-0526,https://locations.traderjoes.com/ca/san-diego/23/
Trader Joe's Del Mar (223 ),32.9611431,-117.1914046,13480 Highlands Place,San Diego,CA,92130,858-755-7130,https://locations.traderjoes.com/ca/san-diego/223/
Trader Joe's Mission Valley (222),32.7660316,-117.1550596,1072 Camino Del Rio North,San Diego,CA,92108,619-297-0749,https://locations.traderjoes.com/ca/san-diego/222/
Trader Joe's San Diego - Point Loma (188),32.7362416,-117.2169709,2401 Truxtun Rd,San Diego,CA,92106,619-758-9272,https://locations.traderjoes.com/ca/san-diego/188/
Trader Joe's San Diego - SDSU (224),32.7720159,-117.0703521,5140 College Ave,San Diego,CA,92115,619-229-9092,https://locations.traderjoes.com/ca/san-diego/224/
Trader Joe's San Diego - Pacific Beach (21),32.8005438,-117.2406508,1640 Garnet Ave,San Diego,CA,92109,858-581-9101,https://locations.traderjoes.com/ca/san-diego/21/
Trader Joe's Cypress (Rossmoor) (242),33.8032103,-118.041489,5245 Katella Ave.,Cypress,CA,90720,714-220-4930,https://locations.traderjoes.com/ca/cypress/242/
Trader Joe's Pleasanton (66),37.69678710000001,-121.8768923,3903 Santa Rita Road,Pleasanton,CA,94588,925-468-0763,https://locations.traderjoes.com/ca/pleasanton/66/
Trader Joe's Santa Rosa Ave (178),38.4175177,-122.7120491,2100 Santa Rosa Ave,Santa Rosa,CA,95407,707-535-0788,https://locations.traderjoes.com/ca/santa-rosa/178/
Trader Joe's Santa Rosa - Cleveland Ave (75),38.47357100000001,-122.7323423,3225 Cleveland Ave,Santa Rosa,CA,95403,707-525-1406,https://locations.traderjoes.com/ca/santa-rosa/75/
Trader Joe's San Jose - Bollinger (232),37.3117915,-122.0309145,7250 Bollinger Rd,San Jose,CA,95129,408-873-7384,https://locations.traderjoes.com/ca/san-jose/232/
Trader Joe's San Jose - Old Almaden (63),37.2515268,-121.8793419,5353 Almaden Expressway #J-38,San Jose,CA,95118,408-264-8120,https://locations.traderjoes.com/ca/san-jose/63/
Trader Joe's San Jose - Coleman Ave (212),37.3409601,-121.9093975,635 Coleman Ave,San Jose,CA,95110,408-298-9731,https://locations.traderjoes.com/ca/san-jose/212/
Trader Joe's San Jose - Westgate West (62),37.293118,-121.9941404,5269 Prospect,San Jose,CA,95129,408-446-5055,https://locations.traderjoes.com/ca/san-jose/62/
Trader Joe's San Juan Capistrano (249),33.4961545,-117.6636584,32151 Camino Capistrano,San Juan Capistrano,CA,92675,949-496-4150,https://locations.traderjoes.com/ca/san-juan-capistrano/249/
Trader Joe's Culver City (251),33.98801,-118.3928504,6150 Slauson Ave,Culver City,CA,90230,310-313-0441,https://locations.traderjoes.com/ca/culver-city/251/
Trader Joe's Culver City (36),34.0252255,-118.3929931,9290 Culver Blvd,Culver City,CA,90232,310-202-1108,https://locations.traderjoes.com/ca/culver-city/36/
Trader Joe's Laguna Hills (39),33.6099179,-117.7027782,24231 Avenida De La Carlota,Laguna Hills,CA,92653,949-461-0927,https://locations.traderjoes.com/ca/laguna-hills/39/
Trader Joe's Mall of Orange (46),33.8234418,-117.8365462,2114 N Tustin St,Orange,CA,92865,714-283-5697,https://locations.traderjoes.com/ca/orange/46/
Trader Joe's Yorba Linda (176),33.8897262,-117.7921699,19655 Yorba Linda Blvd,Yorba Linda,CA,92886,714-970-0116,https://locations.traderjoes.com/ca/yorba-linda/176/
Trader Joe's Capitola (64),36.9777826,-121.970419,3555 Clares St #D,Capitola,CA,95010,831-464-0115,https://locations.traderjoes.com/ca/capitola/64/
Trader Joe's Monrovia (112),34.1378959,-118.0120901,604 W Huntington Dr,Monrovia,CA,91016,626-358-8884,https://locations.traderjoes.com/ca/monrovia/112/
Trader Joe's Fresno (8),36.8581135,-119.7823369,8478 N. Friant Road,Fresno,CA,93720,559-433-6478,https://locations.traderjoes.com/ca/fresno/8/
Trader Joe's La Mesa (24),32.7792966,-117.0056147,5495 Grossmont Center Dr,La Mesa,CA,91942,619-466-0105,https://locations.traderjoes.com/ca/la-mesa/24/
Trader Joe's Redding (219),40.5917021,-122.3571132,845 Browning St,Redding,CA,96003,530-223-4875,https://locations.traderjoes.com/ca/redding/219/
Trader Joe's Los Altos (127),37.3366744,-122.067397,2310 Homestead Rd,Los Altos,CA,94024,408-245-1917,https://locations.traderjoes.com/ca/los-altos/127/
Trader Joe's Modesto (9),37.6871676,-121.0494087,3250 Dale Road,Modesto,CA,95356,209-491-0445,https://locations.traderjoes.com/ca/modesto/9/
Trader Joe's Agoura Hills (247),34.1464374,-118.7565126,28941 Canwood St,Agoura Hills,CA,91301,818-865-8217,https://locations.traderjoes.com/ca/agoura-hills/247/
Trader Joe's Toluca Lake (54),34.151912,-118.3519298,10130 Riverside Dr,Toluca Lake,CA,91602,818-762-2787,https://locations.traderjoes.com/ca/toluca-lake/54/
Trader Joe's Valencia (13),34.4285684,-118.5382801,26517 Bouquet Canyon Rd,Santa Clarita,CA,91350,661-263-3796,https://locations.traderjoes.com/ca/santa-clarita/13/
Trader Joe's Little Rock (756),34.7482874,-92.40185389999999,11500 Financial Centre Pky,Little Rock,AR,72211,501-954-7659,https://locations.traderjoes.com/ar/little-rock/756/
Trader Joe's Williamsburg (657),37.2771382,-76.74781,5000 Settlers Market Blvd,Williamsburg,VA,23188,757-259-2135,https://locations.traderjoes.com/va/williamsburg/657/
Trader Joe's Charlottesville (661),38.0629829,-78.49148799999999,2025 Bond St.,Charlottesville,VA,22901,434-974-1466,https://locations.traderjoes.com/va/charlottesville/661/
Trader Joe's Newport News (656),37.1290527,-76.5150226,12551 Jefferson Ave,Newport News,VA,23602,757-890-0235,https://locations.traderjoes.com/va/newport-news/656/
Trader Joe's Springfield (651),38.7814916,-77.18907329999999,6394 Springfield Plaza,Springfield,VA,22150,703-569-9301,https://locations.traderjoes.com/va/springfield/651/
Trader Joe's Fairfax (643),38.8427152,-77.2703726,9464 Main St,Fairfax,VA,22031,703-764-8550,https://locations.traderjoes.com/va/fairfax/643/
Trader Joe's Alexandria (647),38.81078249999999,-77.0447925,612 N Saint Asaph St,Alexandria,VA,22314,703-548-0611,https://locations.traderjoes.com/va/alexandria/647/
Trader Joe's Ashburn (619),39.0503773,-77.45272899999999,44755 Brimfield Dr,Ashburn,VA,20147,703-858-5993,https://locations.traderjoes.com/va/ashburn/619/
Trader Joe's Richmond/Short Pump (659),37.6488915,-77.6068018,11331 W Broad St,Glen Allen,VA,23060,804-360-4098,https://locations.traderjoes.com/va/glen-allen/659/
Trader Joe's Virginia Beach (660),36.8486112,-76.0247752,503 Hilltop Plaza,Virginia Beach,VA,23454,757-422-4840,https://locations.traderjoes.com/va/virginia-beach/660/
Trader Joe's Centreville (654),38.8404178,-77.4327704,14100 Lee Hwy,Centreville,VA,20120,703-815-0697,https://locations.traderjoes.com/va/centreville/654/
Trader Joe's Falls Church - Tyson's Station (641),38.9045005,-77.20364339999999,7514 Leesburg Turnpike,Falls Church,VA,22043,703-288-0566,https://locations.traderjoes.com/va/falls-church/641/
Trader Joe's Richmond (786),37.5389022,-77.5642704,3000 Stony Point Rd,Richmond,VA,23235,804-323-4292,https://locations.traderjoes.com/va/richmond/786/
Trader Joe's Reston (646),38.96729140000001,-77.358986,11958 Killingsworth Ave,Reston,VA,20194,703-689-0865,https://locations.traderjoes.com/va/reston/646/
Trader Joe's Arlington - Clarendon (640),38.886684,-77.094641,1109 N Highland St,Arlington,VA,22201,703-351-8015,https://locations.traderjoes.com/va/arlington/640/
Trader Joe's Bailey's Crossroads (644),38.85094650000001,-77.1325884,5847 Leesburg Pike,Bailey's Crossroads,VA,22041,703-379-5883,https://locations.traderjoes.com/va/bailey-s-crossroads/644/
Trader Joe's Chesterfield (693),38.6448826,-90.56636240000002,1679 Clarkson Rd,Chesterfield,MO,63017,636-536-7846,https://locations.traderjoes.com/mo/chesterfield/693/
Trader Joe's Des Peres (695),38.601039,-90.46715560000001,13343 Manchester Rd,Des Peres,MO,63131,314-984-5051,https://locations.traderjoes.com/mo/des-peres/695/
Trader Joe's Creve Coeur (694),38.6719545,-90.4364196,11505 Olive Blvd,Creve Coeur,MO,63141,314-569-0427,https://locations.traderjoes.com/mo/creve-coeur/694/
Trader Joe's Kansas City (720),38.9729251,-94.6055446,8600 Ward Pkwy,Kansas City,MO,64114,816-333-5322,https://locations.traderjoes.com/mo/kansas-city/720/
Trader Joe's Brentwood (692),38.6273335,-90.3412312,48 Brentwood Promenade Court,Brentwood,MO,63144,314-963-0253,https://locations.traderjoes.com/mo/brentwood/692/
Trader Joe's Newington/Portsmouth (520),43.0950622,-70.8010319,45 Gosling Rd,Portsmouth,NH,03801,603-431-2654,https://locations.traderjoes.com/nh/portsmouth/520/
Trader Joe's Bedford (562),42.95349119999999,-71.47733629999999,2 Market Street,Bedford,NH,03110,603-222-3074,https://locations.traderjoes.com/nh/bedford/562/
Trader Joe's Nashua (507),42.70801489999999,-71.4384243,262 Daniel Webster HWY,Nashua,NH,03060,603-888-5460,https://locations.traderjoes.com/nh/nashua/507/
Trader Joe's Everett (139),47.9107208,-122.2213893,811 SE Everett Mall Way,Everett,WA,98208,425-513-2210,https://locations.traderjoes.com/wa/everett/139/
Trader Joe's Burien (133),47.460074,-122.3313908,15868 1st Ave S,Burien,WA,98148,206-901-9339,https://locations.traderjoes.com/wa/burien/133/
Trader Joe's Bellingham (151),48.76212599999999,-122.463924,2410 James St,Bellingham,WA,98225,360-734-5166,https://locations.traderjoes.com/wa/bellingham/151/
Trader Joe's Redmond (140),47.675818,-122.1279924,15932 Redmond Way,Redmond,WA,98052,425-883-1624,https://locations.traderjoes.com/wa/redmond/140/
Trader Joe's Kent (163),47.3585623,-122.167947,12966 SE Kent-Kangley Rd,Kent,WA,98030,253-639-3419,https://locations.traderjoes.com/wa/kent/163/
Trader Joe's Federal Way (134),47.3169255,-122.3109368,1758 S 320th St,Federal Way,WA,98003,253-941-6138,https://locations.traderjoes.com/wa/federal-way/134/
Trader Joe's Vancouver (136),45.61879649999999,-122.5543273,305 SE Chkalov Dr,Vancouver,WA,98683,360-883-9000,https://locations.traderjoes.com/wa/vancouver/136/
Trader Joe's Bellevue (131),47.6307602,-122.1334287,15563 NE 24th St,Bellevue,WA,98007,425-641-5069,https://locations.traderjoes.com/wa/bellevue/131/
Trader Joe's Bellevue (162),47.6137855,-122.1853415,416 116th Ave NE,Bellevue,WA,98004,425-454-9799,https://locations.traderjoes.com/wa/bellevue/162/
Trader Joe's Kirkland (132),47.7115288,-122.1799597,12520 Totem Lake Blvd NE,Kirkland,WA,98034,425-814-9181,https://locations.traderjoes.com/wa/kirkland/132/
Trader Joe's Olympia (156),47.0330641,-122.9381771,1530 Black Lake Blvd SW,Olympia,WA,98502,360-352-7440,https://locations.traderjoes.com/wa/olympia/156/
Trader Joe's University Place (148),47.2230636,-122.5381784,3800 Bridgeport Way W,University Place,WA,98466,253-460-2672,https://locations.traderjoes.com/wa/university-place/148/
Trader Joe's Sammamish (160),47.6136468,-122.0337856,490 228th Ave NE,Sammamish,WA,98074,425-836-0837,https://locations.traderjoes.com/wa/sammamish/160/
Trader Joe's Seattle - Queen Anne Hill (135),47.63661219999999,-122.3566321,1916 Queen Anne Ave N,Seattle,WA,98109,206-284-2546,https://locations.traderjoes.com/wa/seattle/135/
Trader Joe's Seattle - U District (137),47.66261009999999,-122.3175931,4555 Roosevelt Way NE,Seattle,WA,98105,206-547-6299,https://locations.traderjoes.com/wa/seattle/137/
Trader Joe's West Seattle (157),47.5619296,-122.3810293,4545 Fauntleroy Way SW,Seattle,WA,98116,206-913-0013,https://locations.traderjoes.com/wa/seattle/157/
Trader Joe's Ballard (147),47.6625019,-122.3738473,4609 14th Ave NW,Seattle,WA,98107,206-783-0498,https://locations.traderjoes.com/wa/seattle/147/
Trader Joe's Seattle - Capitol Hill (130),47.6160065,-122.3097059,1700 Madison St,Seattle,WA,98122,206-322-7268,https://locations.traderjoes.com/wa/seattle/130/
Trader Joe's Issaquah (138),47.5439787,-122.0522419,975 NW Gilman Blvd,Issaquah,WA,98027,425-557-6420,https://locations.traderjoes.com/wa/issaquah/138/
Trader Joe's Silverdale (158),47.6554254,-122.6831633,9991 Mickelberry Rd,Silverdale,WA,98383,360-307-7224,https://locations.traderjoes.com/wa/silverdale/158/
Trader Joe's Shoreline (270),47.75491479999999,-122.3433056,1201 N 175th St,Shoreline,WA,98133,206-542-5336,https://locations.traderjoes.com/wa/shoreline/270/
Trader Joe's Spokane N (164),47.7088991,-117.409297,5520 N Division St,Spokane,WA,99208,509-487-4188,https://locations.traderjoes.com/wa/spokane/164/
Trader Joe's Spokane (159),47.6289661,-117.3666428,2975 East 29th Ave,Spokane,WA,99223,509-534-1077,https://locations.traderjoes.com/wa/spokane/159/
Trader Joe's Lynnwood (129),47.8196337,-122.313765,19715 Highway 99,Lynnwood,WA,98036,425-670-0623,https://locations.traderjoes.com/wa/lynnwood/129/
Trader Joe's San Antonio - Sonterra Village (455),29.6092997,-98.49895339999999,403 N Loop 1604 W,San Antonio,TX,78232,210-545-3123,https://locations.traderjoes.com/tx/san-antonio/455/
Trader Joe's San Antonio (451),29.496703,-98.47803019999999,350 East Basse Road,San Antonio,TX,78209,210-826-1110,https://locations.traderjoes.com/tx/san-antonio/451/
Trader Joe's The Woodlands (428),30.1755966,-95.5353996,10868 Kuykendahl Road,The Woodlands,TX,77381,281-465-0254,https://locations.traderjoes.com/tx/the-woodlands/428/
Trader Joe's McKinney (408),33.1736968,-96.6428744,2851 Craig Dr Ste 100,McKinney,TX,75070,214-491-1893,https://locations.traderjoes.com/tx/mckinney/408/
Trader Joe's Dallas  -  Lower Greenville (403),32.8148219,-96.77056569999999,2001 Greenville Ave,Dallas,TX,75206,469-334-0614,https://locations.traderjoes.com/tx/dallas/403/
Trader Joe's Dallas North (401),32.8805703,-96.77228079999999,7939 Walnut Hill Lane,Dallas,TX,75230,214-346-6579,https://locations.traderjoes.com/tx/dallas/401/
Trader Joe's Dallas Knox (400),32.8222586,-96.7896609,4525 Cole Ave,Dallas,TX,75205,214-599-2155,https://locations.traderjoes.com/tx/dallas/400/
Trader Joe's Dallas Far North (407),32.9508704,-96.8028234,14856 Preston Rd,Dallas,TX,75254,972-239-3901,https://locations.traderjoes.com/tx/dallas/407/
Trader Joe's Dallas West (405),32.8507073,-96.81809380000001,5550 W Lovers Lane,Dallas,TX,75209,214-366-0205,https://locations.traderjoes.com/tx/dallas/405/
Trader Joe's Fort Worth (404),32.7119773,-97.3851284,2701 S Hulen St,Fort Worth,TX,76109,817-922-9107,https://locations.traderjoes.com/tx/fort-worth/404/
Trader Joe's Plano (402),33.02923200000001,-96.7928213,2400 Preston Rd,Plano,TX,75093,972-312-9538,https://locations.traderjoes.com/tx/plano/402/
Trader Joe's Austin - Seaholm (452),30.2674966,-97.7527899,"211 Walter Seaholm Dr, Ste 100",Austin,TX,78701,512-474-2263,https://locations.traderjoes.com/tx/austin/452/
Trader Joe's Austin - Northwest (454),30.3955849,-97.7517712,9722 Great Hills Trail,Austin,TX,78759,512-241-1248,https://locations.traderjoes.com/tx/austin/454/
Trader Joe's Austin - Rollingwood (453),30.2701339,-97.78981139999999,2805 Bee Cave Rd,Austin,TX,78746,512-306-1032,https://locations.traderjoes.com/tx/austin/453/
Trader Joe's Houston - S Voss Rd (427),29.7527125,-95.5016672,1440 South Voss Road,Houston,TX,77057,713-266-2377,https://locations.traderjoes.com/tx/houston/427/
Trader Joe's Houston - West (431),29.7354063,-95.5824872,11683 Westheimer Rd,Houston,TX,77077,281-496-2488,https://locations.traderjoes.com/tx/houston/431/
Trader Joe's Houston - Alabama Theater (426),29.7392113,-95.4113227,2922 S Shepherd Drive,Houston,TX,77098,713-526-4034,https://locations.traderjoes.com/tx/houston/426/
Trader Joe's Katy (Cinco Ranch) (429),29.7404838,-95.7746398,2717 Commercial Center Blvd,Katy,TX,77494,281-392-4200,https://locations.traderjoes.com/tx/katy/429/
Trader Joe's Southlake (406),32.9413307,-97.12941789999999,1492 E Southlake Blvd,Southlake,TX,76092,817-251-0360,https://locations.traderjoes.com/tx/southlake/406/
Trader Joe's Saugus (506),42.4834902,-71.01755399999999,358 Broadway,Saugus,MA,01906,781-231-0848,https://locations.traderjoes.com/ma/saugus/506/
Trader Joe's Acton (511),42.4827877,-71.4140695,145 Great Rd,Acton,MA,01720,978-266-8908,https://locations.traderjoes.com/ma/acton/511/
Trader Joe's Allston (561),42.3635097,-71.1298352,199 North Harvard Street,Allston,MA,02134,617-787-1238,https://locations.traderjoes.com/ma/allston/561/
Trader Joe's Hingham (530),42.2490667,-70.92379679999999,5 Essington Drive,Hingham,MA,02043,781-740-2038,https://locations.traderjoes.com/ma/hingham/530/
Trader Joe's Shrewsbury (508),42.2755332,-71.74983089999999,77 Boston Turnpike,Shrewsbury,MA,01545,508-755-9560,https://locations.traderjoes.com/ma/shrewsbury/508/
Trader Joe's Burlington (515),42.473428,-71.2106665,51 Middlesex Turnpike,Burlington,MA,01803,781-273-2310,https://locations.traderjoes.com/ma/burlington/515/
Trader Joe's Hyannis (514),41.6662989,-70.29237839999999,655 Iyannough Road Rt 132,Hyannis,MA,02601,508-790-3008,https://locations.traderjoes.com/ma/hyannis/514/
Trader Joe's West Newton (509),42.3498414,-71.2194473,1121 Washington St,West Newton,MA,02465,617-244-1620,https://locations.traderjoes.com/ma/west-newton/509/
Trader Joe's Framingham (503),42.2991676,-71.42483419999999,659 Worcester Rd,Framingham,MA,01701,508-935-2931,https://locations.traderjoes.com/ma/framingham/503/
Trader Joe's Somerville (560),42.39663669999999,-71.0824148,145 Middlesex Ave,Somerville,MA,02145,617-591-0124,https://locations.traderjoes.com/ma/somerville/560/
Trader Joe's Peabody (516),42.5503856,-70.95644120000001,300 Andover St,Peabody,MA,01960,978-977-5316,https://locations.traderjoes.com/ma/peabody/516/
Trader Joe's Foxborough - Patriot Place (528),42.0862886,-71.27023059999999,350 Patriot Place,Foxborough,MA,02035,508-543-1978,https://locations.traderjoes.com/ma/foxborough/528/
Trader Joe's Fort Point Seaport (566),42.3518568,-71.0472681,44 Thomson Place,Boston,MA,02210,617-941-3714,https://locations.traderjoes.com/ma/boston/566/
Trader Joe's Boston - Back Bay (510),42.3484566,-71.0840861,899 Boylston St,Boston,MA,02115,617-262-6505,https://locations.traderjoes.com/ma/boston/510/
Trader Joe's Hanover (513),42.122497,-70.83161419999999,1775 Washington St,Hanover,MA,02339,781-826-5389,https://locations.traderjoes.com/ma/hanover/513/
Trader Joe's Hadley (512),42.3577603,-72.5493664,375 Russell St,Hadley,MA,01035,413-587-3260,https://locations.traderjoes.com/ma/hadley/512/
Trader Joe's Arlington (505),42.42538589999999,-71.1885087,1427 Massachusetts Ave,Arlington,MA,02476,781-646-9138,https://locations.traderjoes.com/ma/arlington/505/
Trader Joe's Needham Heights (504),42.2923534,-71.2351992,958 Highland Ave,Needham,MA,02494,781-449-6993,https://locations.traderjoes.com/ma/needham/504/
Trader Joe's Brookline (501),42.3419605,-71.1204815,1317 Beacon St,Brookline,MA,02446,617-278-9997,https://locations.traderjoes.com/ma/brookline/501/
Trader Joe's Cambridge (502),42.3582624,-71.1141683,748 Memorial Dr,Cambridge,MA,02139,617-491-8582,https://locations.traderjoes.com/ma/cambridge/502/
Trader Joe's Cambridge Fresh Pond (517),42.3899646,-71.1436447,211 Alewife Brook Pkwy,Cambridge,MA,02138,617-498-3201,https://locations.traderjoes.com/ma/cambridge/517/
Trader Joe's Ann Arbor (678),42.258405,-83.71302250000001,2398 East Stadium Blvd,Ann Arbor,MI,48104,734-975-2455,https://locations.traderjoes.com/mi/ann-arbor/678/
Trader Joe's Northville (667),42.4227596,-83.4335885,18771 Traditions Drive,Northville,MI,48167,248-349-4909,https://locations.traderjoes.com/mi/northville/667/
Trader Joe's Kalamazoo (708),42.2701259,-85.6499899,5099 Century Ave,Kalamazoo,MI,49006,269-372-2049,https://locations.traderjoes.com/mi/kalamazoo/708/
Trader Joe's Rochester Hills (668),42.6829545,-83.1951258,3044 Walton Blvd,Rochester Hills,MI,48309,248-375-2190,https://locations.traderjoes.com/mi/rochester-hills/668/
Trader Joe's Grand Rapids - Kentwood (707),42.911965,-85.5766871,3684 28th St SE,Kentwood,MI,49512,616-977-1819,https://locations.traderjoes.com/mi/kentwood/707/
Trader Joe's Royal Oak (674),42.4954182,-83.163695,27880 Woodward Ave,Royal Oak,MI,48067,248-582-9002,https://locations.traderjoes.com/mi/royal-oak/674/
Trader Joe's Grosse Pointe (665),42.389772,-82.915887,17028 Kercheval Ave,Grosse Pointe,MI,48230,313-640-7794,https://locations.traderjoes.com/mi/grosse-pointe/665/
Trader Joe's Bloomfield Hills (675),42.5441271,-83.28676349999999,6536 Telegraph Rd,Bloomfield Hills,MI,48301,248-855-2283,https://locations.traderjoes.com/mi/bloomfield-hills/675/
Trader Joe's Asheville (740),35.6030447,-82.5535768,120 Merrimon Ave,Asheville,NC,28801,828-232-5078,https://locations.traderjoes.com/nc/asheville/740/
Trader Joe's Charlotte (744),35.2118507,-80.8356919,1133 Metropolitan Ave,Charlotte,NC,28204,704-334-0737,https://locations.traderjoes.com/nc/charlotte/744/
Trader Joe's Charlotte - Piper Glen (742),35.0788563,-80.8179279,6418 Rea Rd,Charlotte,NC,28277,704-543-5249,https://locations.traderjoes.com/nc/charlotte/742/
Trader Joe's Charlotte - North (743),35.3368095,-80.7545264,1820 E Arbors Dr,Charlotte,NC,28262,704-688-9578,https://locations.traderjoes.com/nc/charlotte/743/
Trader Joe's Wilmington (747),34.2107721,-77.8857637,1437 S College Rd,Wilmington,NC,28403,910-395-5173,https://locations.traderjoes.com/nc/wilmington/747/
Trader Joe's Morrisville (791),35.8094682,-78.8176467,951 Morrisville Parkway,Morrisville,NC,27560,919-460-4449,https://locations.traderjoes.com/nc/morrisville/791/
Trader Joe's Cary (741),35.758902,-78.7815442,1393 Kildaire Farm Rd,Cary,NC,27511,919-465-5984,https://locations.traderjoes.com/nc/cary/741/
Trader Joe's Raleigh (746),35.8232408,-78.62171120000001,3000 Wake Forest Rd,Raleigh,NC,27609,919-981-7422,https://locations.traderjoes.com/nc/raleigh/746/
Trader Joe's Greensboro (750),36.1312909,-79.8577703,3721 Battleground Ave.,Greensboro,NC,27410,336-286-7859,https://locations.traderjoes.com/nc/greensboro/750/
Trader Joe's Winston Salem (749),36.0930435,-80.28191439999999,252 South Stratford Road,Winston Salem,NC,27103,336-721-1744,https://locations.traderjoes.com/nc/winston-salem/749/
Trader Joe's Chapel Hill (745),35.93548450000001,-79.0263848,1800 E Franklin St,Chapel Hill,NC,27514,919-918-7871,https://locations.traderjoes.com/nc/chapel-hill/745/
Trader Joe's Glover Park (620),38.91753629999999,-77.0687234,2101 Wisconsin Ave NW Suite A,Washington,DC,20007,202-944-8403,https://locations.traderjoes.com/dc/washington/620/
Trader Joe's Washington - 14th St (662),38.9160454,-77.0321896,1914 14th St NW,Washington,DC,20009,202-986-1591,https://locations.traderjoes.com/dc/washington/662/
Trader Joe's Washington - Union Market District (621),38.9074813,-77.0007481,350 Florida Ave. NE,Washington,DC,20002,202-608-1023,https://locations.traderjoes.com/dc/washington/621/
Trader Joe's Washington - 25th St (653),38.90413179999999,-77.0529834,1101 25th Street NW,Washington,DC,20037,202-296-1921,https://locations.traderjoes.com/dc/washington/653/
Trader Joe's Washington - Capitol Hill (622),38.884738,-76.995426,750 Pennsylvania Ave SE,Washington,DC,20003,202-698-0190,https://locations.traderjoes.com/dc/washington/622/
Trader Joe's Indianapolis - Castleton (671),39.9037062,-86.0751813,5473 E 82nd St,Indianapolis,IN,46250,317-595-8950,https://locations.traderjoes.com/in/indianapolis/671/
Trader Joe's Indianapolis - W 86th (670),39.9125685,-86.2117997,2902 W 86th St,Indianapolis,IN,46268,317-337-1880,https://locations.traderjoes.com/in/indianapolis/670/
Trader Joe's Fort Wayne (757),41.0717432,-85.1953587,4110 W. Jefferson Blvd.,Fort Wayne,IN,46804,260-432-5828,https://locations.traderjoes.com/in/fort-wayne/757/
Trader Joe's South Bend (600),41.68816959999999,-86.2451059,1140 East Howard,South Bend,IN,46617,574-472-8744,https://locations.traderjoes.com/in/south-bend/600/
Trader Joe's Boise (360),43.6130541,-116.2037682,300 S Capitol Blvd,Boise,ID,83702,208-336-7282,https://locations.traderjoes.com/id/boise/360/
Trader Joe's Meridian (361),43.6320685,-116.3518756,2986 N. Eagle RD.,Meridian,ID,83646,208-506-2978,https://locations.traderjoes.com/id/meridian/361/
Trader Joe's Albuquerque (166),35.175132,-106.5426633,8928 Holly Ave NE,Albuquerque,NM,87122,505-796-0311,https://locations.traderjoes.com/nm/albuquerque/166/
Trader Joe's Albuquerque (167),35.1022335,-106.5654968,2200 Uptown Loop NE,Albuquerque,NM,87110,505-883-3662,https://locations.traderjoes.com/nm/albuquerque/167/
Trader Joe's Santa Fe (165),35.6729716,-105.953372,530 W Cordova Rd,Santa Fe,NM,87505,505-995-8145,https://locations.traderjoes.com/nm/santa-fe/165/
Trader Joe's Metairie (755),30.0044051,-90.15205879999999,2949 Veterans Blvd,Metairie,LA,70002,504-831-0253,https://locations.traderjoes.com/la/metairie/755/
Trader Joe's Baton Rouge (754),30.4219289,-91.15381289999999,3535 Perkins Rd,Baton Rouge,LA,70808,225-382-0588,https://locations.traderjoes.com/la/baton-rouge/754/
Trader Joe's Scarsdale (531),40.97233749999999,-73.80487,727 White Plains Rd,Scarsdale,NY,10583,914-472-2988,https://locations.traderjoes.com/ny/scarsdale/531/
Trader Joe's Amherst (536),42.997896,-78.82171749999999,1565 Niagara Falls Blvd,Buffalo,NY,14228,716-833-4687,https://locations.traderjoes.com/ny/buffalo/536/
Trader Joe's Syracuse (537),43.0462423,-76.07064629999999,3422 Erie Blvd E,Syracuse,NY,13214,315-446-1629,https://locations.traderjoes.com/ny/syracuse/537/
Trader Joe's Westbury (550),40.7443902,-73.6039002,910 Old Country Rd,Garden City,NY,11530,516-794-0174,https://locations.traderjoes.com/ny/garden-city/550/
Trader Joe's Hewlett (554),40.6392018,-73.70172029999999,1280 West Broadway,Hewlett,NY,11557,516-569-7191,https://locations.traderjoes.com/ny/hewlett/554/
Trader Joe's Halfmoon (574),42.859042,-73.7664479,3 Halfmoon Crossing Blvd,Halfmoon,NY,12065,518-383-5015,https://locations.traderjoes.com/ny/halfmoon/574/
Trader Joe's Larchmont (532),40.9383639,-73.7464526,1260 Boston Post Rd,Larchmont,NY,10538,914-833-9112,https://locations.traderjoes.com/ny/larchmont/532/
Trader Joe's Yorktown (567),41.2916645,-73.824354,3240 Crompond Road,Yorktown,NY,10598,914-737-1460,https://locations.traderjoes.com/ny/yorktown/567/
Trader Joe's Plainview (555),40.7817125,-73.5015006,425 S Oyster Bay Rd,Plainview,NY,11803,516-933-6900,https://locations.traderjoes.com/ny/plainview/555/
Trader Joe's Rochester (534),43.10128840000001,-77.5383647,3349 Monroe Ave,Rochester,NY,14618,585-248-5011,https://locations.traderjoes.com/ny/rochester/534/
Trader Joe's Commack (551),40.8403293,-73.30748919999999,5900 Jericho Turnpike,Commack,NY,11725,631-499-0898,https://locations.traderjoes.com/ny/commack/551/
Trader Joe's Hartsdale (533),41.0255446,-73.7934729,215 N Central Ave,Hartsdale,NY,10530,914-997-1960,https://locations.traderjoes.com/ny/hartsdale/533/
Trader Joe's Lake Grove (556),40.8690995,-73.12930229999999,2085 Smith Haven Plaza,Lake Grove,NY,11755,631-366-2094,https://locations.traderjoes.com/ny/lake-grove/556/
Trader Joe's Long Island City (565),40.745854,-73.94620100000002,22-43 Jackson Ave,Queens,NY,11101,718-472-2672,https://locations.traderjoes.com/ny/queens/565/
Trader Joe's Forest Hills (578),40.722582,-73.84857269999999,69-65 Yellowstone Blvd,Queens,NY,11375,,https://locations.traderjoes.com/ny/queens/578/
Trader Joe's Rego Park (557),40.7112267,-73.85834299999999,9030 Metropolitan Ave,Queens,NY,11374,718-275-1791,https://locations.traderjoes.com/ny/queens/557/
Trader Joe's Ithaca (568),42.4286126,-76.5102534,744 S Meadow Street,Ithaca,NY,14850,607-272-1420,https://locations.traderjoes.com/ny/ithaca/568/
Trader Joe's Oceanside (552),40.6268403,-73.6411574,3418 Long Beach Rd,Oceanside,NY,11572,516-536-9163,https://locations.traderjoes.com/ny/oceanside/552/
Trader Joe's Staten Island (559),40.5896623,-74.1657412,2385 Richmond Ave,Staten Island,NY,10314,718-370-1085,https://locations.traderjoes.com/ny/staten-island/559/
Trader Joe's Colonie/Albany (535),42.7141625,-73.81203889999999,79 Wolf Rd,Colonie,NY,12205,518-482-4538,https://locations.traderjoes.com/ny/colonie/535/
Trader Joe's Brooklyn - City Point (547),40.6910028,-73.98309170000002,445 Gold St,Brooklyn,NY,11201,718-243-0107,https://locations.traderjoes.com/ny/brooklyn/547/
Trader Joe's Brooklyn (558),40.6895837,-73.9928699,130 Court St,Brooklyn,NY,11201,718-246-8460,https://locations.traderjoes.com/ny/brooklyn/558/
Trader Joe's Brooklyn - Williamsburg (548),40.717736,-73.96471850000002,200 Kent Ave,Brooklyn,NY,11249,718-218-7315,https://locations.traderjoes.com/ny/brooklyn/548/
Trader Joe's Merrick (553),40.6533715,-73.55879999999999,1714 Merrick Rd,Merrick,NY,11566,516-771-1012,https://locations.traderjoes.com/ny/merrick/553/
Trader Joe's Union Square (540),40.733371,-73.9878966,142 E 14th St,New York,NY,10003,212-529-4612,https://locations.traderjoes.com/ny/new-york/540/
Trader Joe's Essex Crossing (538),40.7164903,-73.9867718,400 Grand St. (Cellar),New York,NY,10002,212-477-8340,https://locations.traderjoes.com/ny/new-york/538/
Trader Joe's Upper West Side (545),40.79071039999999,-73.96950980000001,670 Columbus Ave,New York,NY,10025,212-678-1680,https://locations.traderjoes.com/ny/new-york/545/
Trader Joe's East Village (546),40.7305086,-73.9809938,436 East 14th St,New York,NY,10009,212-777-9412,https://locations.traderjoes.com/ny/new-york/546/
Trader Joe's New York - Murray Hill (544),40.7439882,-73.97908389999999,200 E 32nd St,New York,NY,10016,212-889-3279,https://locations.traderjoes.com/ny/new-york/544/
Trader Joe's SoHo (539),40.7257355,-74.0048856,233 Spring Street,New York,NY,10013,212-691-2721,https://locations.traderjoes.com/ny/new-york/539/
Trader Joe's Upper East Side - Bridgemarket (571),40.759541,-73.9614127,405 E. 59th Street,New York,NY,10022,212-935-3870,https://locations.traderjoes.com/ny/new-york/571/
Trader Joe's Chelsea (543),40.7420631,-73.9937963,675 6th Ave,New York,NY,10010,212-255-2106,https://locations.traderjoes.com/ny/new-york/543/
Trader Joe's 72nd & Broadway (542),40.778552,-73.9822648,2073 Broadway,New York,NY,10023,212-799-0028,https://locations.traderjoes.com/ny/new-york/542/
Trader Joe's W Des Moines (721),41.56137349999999,-93.7948121,6305 Mills Civic Pkwy,West Des Moines,IA,50266,515-225-3820,https://locations.traderjoes.com/ia/west-des-moines/721/
Trader Joe's Coralville (728),41.6833223,-91.5647228,920 Ponseti Way,Coralville,IA,52241,319-351-7223,https://locations.traderjoes.com/ia/coralville/728/
Trader Joe's Park Ridge (698),42.0127157,-87.8323637,190 N NW Highway,Park Ridge,IL,60068,847-292-1108,https://locations.traderjoes.com/il/park-ridge/698/
Trader Joe's La Grange (685),41.8173165,-87.8693557,25 N La Grange Rd,La Grange,IL,60525,708-579-0838,https://locations.traderjoes.com/il/la-grange/685/
Trader Joe's Northbrook (682),42.1506654,-87.7987265,127 Skokie Blvd,Northbrook,IL,60062,847-480-9280,https://locations.traderjoes.com/il/northbrook/682/
Trader Joe's Glenview (681),42.0809684,-87.7972463,1407 Waukegan Rd,Glenview,IL,60025,847-657-7821,https://locations.traderjoes.com/il/glenview/681/
Trader Joe's Lake Zurich (684),42.1888171,-88.1089823,735 W Route 22,Lake Zurich,IL,60047,847-550-7827,https://locations.traderjoes.com/il/lake-zurich/684/
Trader Joe's Libertyville (704),42.2551401,-87.9468828,1600 S Milwaukee Ave,Libertyville,IL,60048,847-680-1739,https://locations.traderjoes.com/il/libertyville/704/
Trader Joe's Naperville (690),41.7545412,-88.1405028,44 W Gartner Rd,Naperville,IL,60540,630-355-4389,https://locations.traderjoes.com/il/naperville/690/
Trader Joe's Orland Park (686),41.6180449,-87.85462120000001,14924 S La Grange Rd,Orland Park,IL,60462,708-349-9021,https://locations.traderjoes.com/il/orland-park/686/
Trader Joe's Algonquin (699),42.1483919,-88.3358278,1800 S Randall Rd,Algonquin,IL,60102,847-854-4886,https://locations.traderjoes.com/il/algonquin/699/
Trader Joe's Glen Ellyn (680),41.8605268,-88.0586561,680 Roosevelt Rd,Glen Ellyn,IL,60137,630-858-5077,https://locations.traderjoes.com/il/glen-ellyn/680/
Trader Joe's Oak Park (697),41.8900855,-87.80491529999999,483 N Harlem Ave,Oak Park,IL,60301,708-386-1169,https://locations.traderjoes.com/il/oak-park/697/
Trader Joe's Arlington Heights (687),42.1129268,-87.9826671,17 W Rand Rd,Arlington Heights,IL,60004,847-506-0752,https://locations.traderjoes.com/il/arlington-heights/687/
Trader Joe's Downers Grove (683),41.8110584,-87.9890937,122 Ogden Ave,Downers Grove,IL,60515,630-241-1662,https://locations.traderjoes.com/il/downers-grove/683/
Trader Joe's Chicago (688),41.9498851,-87.67514039999999,3745 N Lincoln Ave,Chicago,IL,60613,773-248-4920,https://locations.traderjoes.com/il/chicago/688/
Trader Joe's Chicago - Diversey Pkwy (703),41.9324176,-87.6462646,667 W Diversey Pkwy,Chicago,IL,60614,773-935-7255,https://locations.traderjoes.com/il/chicago/703/
Trader Joe's Chicago - South Loop (701),41.8677377,-87.62540949999999,1147 S Wabash Ave,Chicago,IL,60605,312-588-0489,https://locations.traderjoes.com/il/chicago/701/
Trader Joe's Chicago - River North (696),41.8934274,-87.6263096,44 E Ontario St,Chicago,IL,60611,312-951-6369,https://locations.traderjoes.com/il/chicago/696/
Trader Joe's Hyde Park (706),41.7963716,-87.5884693,1528 E 55th Street,Chicago,IL,60615,773-363-8831,https://locations.traderjoes.com/il/chicago/706/
Trader Joe's Chicago - Lincoln Park (691),41.9146326,-87.6550362,1840 N Clybourn Ave,Chicago,IL,60614,312-274-9733,https://locations.traderjoes.com/il/chicago/691/
Trader Joe's Batavia (689),41.8638134,-88.33839139999999,1942 W Fabyan Pkwy,Batavia,IL,60510,630-879-3234,https://locations.traderjoes.com/il/batavia/689/
Trader Joe's Schaumburg (705),42.0510988,-88.041887,1426 E Golf Rd,Schaumburg,IL,60173,847-619-0095,https://locations.traderjoes.com/il/schaumburg/705/
Trader Joe's Evanston (702),42.0397785,-87.6800329,1211 Chicago Avenue,Evanston,IL,60202,847-733-0690,https://locations.traderjoes.com/il/evanston/702/
Trader Joe's South Burlington (527),44.463793,-73.1804204,200 Dorset St,South Burlington,VT,05403,802-658-4500,https://locations.traderjoes.com/vt/south-burlington/527/
Trader Joe's Woodmere (676),41.4632675,-81.47913489999999,28425 Chagrin Blvd,Woodmere,OH,44122,216-591-9457,https://locations.traderjoes.com/oh/woodmere/676/
Trader Joe's Columbus (679),40.0493003,-82.9180099,3888 Townsfair Way,Columbus,OH,43219,614-473-0794,https://locations.traderjoes.com/oh/columbus/679/
Trader Joe's Kenwood (669),39.1973321,-84.38170540000002,7788 Montgomery Rd,Cincinnati,OH,45236,513-984-3452,https://locations.traderjoes.com/oh/cincinnati/669/
Trader Joe's Mentor (709),41.6804165,-81.3001377,9474 Mentor Ave,Mentor,OH,44060,440-350-7216,https://locations.traderjoes.com/oh/mentor/709/
Trader Joe's Westlake (677),41.4571069,-81.95103929999999,175 Market St,Westlake,OH,44145,440-250-1592,https://locations.traderjoes.com/oh/westlake/677/
Trader Joe's Kettering (673),39.68844550000001,-84.1649592,328 East Stroop Rd,Kettering,OH,45429,937-294-5411,https://locations.traderjoes.com/oh/kettering/673/
Trader Joe's Dublin (672),40.09650449999999,-83.0930892,6355 Sawmill Rd,Dublin,OH,43017,614-793-8505,https://locations.traderjoes.com/oh/dublin/672/
Trader Joe's Lexington Grocery (627),38.0049258,-84.51835849999999,2326 Nicholasville Rd,Lexington,KY,40503,859-313-5030,https://locations.traderjoes.com/ky/lexington/627/
Trader Joe's Lexington  Wine Shop (626),38.0049232,-84.5181502,2320 Nicholasville Road,Lexington,KY,40503,859-277-0144,https://locations.traderjoes.com/ky/lexington/626/
Trader Joe's Crestview Hills  Wine Shop (789),39.0260762,-84.57732519999999,2785 Dixie Highway,Crestview Hills,KY,41017,859-331-1472,https://locations.traderjoes.com/ky/crestview-hills/789/
Trader Joe's Crestview Hills Grocery (788),39.0288459,-84.5771427,2780 Dixie Highway,Crestview Hills,KY,41017,859-331-0034,https://locations.traderjoes.com/ky/crestview-hills/788/
Trader Joe's Louisville Grocery (628),38.2500898,-85.6313705,4600 Shelbyville Rd Ste 111,Louisville,KY,40207,502-895-1361,https://locations.traderjoes.com/ky/louisville/628/
Trader Joe's Louisville  Wine Shop (625),38.2500008,-85.63139600000001,4600 Shelbyville Rd Ste 112,Louisville,KY,40207,502-895-7872,https://locations.traderjoes.com/ky/louisville/625/
Trader Joe's Lincoln (722),40.74213049999999,-96.67479550000002,3120 Pine Lake Rd,Lincoln,NE,68516,402-328-0120,https://locations.traderjoes.com/ne/lincoln/722/
Trader Joe's Omaha (719),41.2482016,-96.0733874,10305 Pacific St,Omaha,NE,68114,402-391-3698,https://locations.traderjoes.com/ne/omaha/719/
Trader Joe's Franklin - Cool Springs (792),35.9481174,-86.8240624,545 Cool Springs Blvd,Franklin,TN,37067,615-771-3697,https://locations.traderjoes.com/tn/franklin/792/
Trader Joe's Knoxville (663),35.9272645,-84.04590019999999,8001 Kingston Pike,Knoxville,TN,37919,865-670-4088,https://locations.traderjoes.com/tn/knoxville/663/
Trader Joe's Nashville (664),36.1050835,-86.815626,3909 Hillsboro Pike,Nashville,TN,37215,615-297-6560,https://locations.traderjoes.com/tn/nashville/664/
Trader Joe's Belle Meade (739),36.1307261,-86.85222700000001,90 White Bridge Rd,Nashville,TN,37205,615-356-1066,https://locations.traderjoes.com/tn/nashville/739/
Trader Joe's Chattanooga (787),35.0328542,-85.15470140000001,2111 Gunbarrel Road,Chattanooga,TN,37421,423-855-1310,https://locations.traderjoes.com/tn/chattanooga/787/
Trader Joe's Germantown (738),35.0907799,-89.80117369999999,2130 Exeter Rd.,Germantown,TN,38138,901-759-2803,https://locations.traderjoes.com/tn/germantown/738/
Trader Joe's Wilmington (636),39.83383269999999,-75.54172419999999,5605 Concord Pike,Wilmington,DE,19803,302-478-8494,https://locations.traderjoes.com/de/wilmington/636/
Trader Joe's Christiana (759),39.6731366,-75.64803839999999,2500 Fashion Center Blvd.,Newark,DE,19702,302-292-6825,https://locations.traderjoes.com/de/newark/759/
Trader Joe's Philadelphia - Center City (634),39.9542967,-75.17613469999999,2121 Market St,Philadelphia,PA,19103,215-569-9282,https://locations.traderjoes.com/pa/philadelphia/634/
Trader Joe's Arch St. (618),39.9541791,-75.16243589999999,1324 Arch St.,Philadelphia,PA,19107,215-563-2170,https://locations.traderjoes.com/pa/philadelphia/618/
Trader Joe's Pittsburgh (638),40.4592363,-79.9191827,6343 Penn Ave,Pittsburgh,PA,15206,412-363-5748,https://locations.traderjoes.com/pa/pittsburgh/638/
Trader Joe's Pittsburgh - South Hills (630),40.3513544,-80.0517205,1630 Washington Rd,Pittsburgh,PA,15241,412-835-2212,https://locations.traderjoes.com/pa/pittsburgh/630/
Trader Joe's Pittsburgh North Hills (624),40.5704092,-80.0223146,9020 Covenant Ave,Pittsburgh,PA,15237,412-366-1131,https://locations.traderjoes.com/pa/pittsburgh/624/
Trader Joe's Camp Hill (569),40.2244309,-76.93707119999999,3545 Gettysburg Road,Camp Hill,PA,17011,7177306025,https://locations.traderjoes.com/pa/camp-hill/569/
Trader Joe's Jenkintown (633),40.1083747,-75.1221563,933 Old York Rd,Jenkintown,PA,19046,215-885-5240,https://locations.traderjoes.com/pa/jenkintown/633/
Trader Joe's Media (637),39.917564,-75.38890669999999,12 E State St,Media,PA,19063,610-891-2752,https://locations.traderjoes.com/pa/media/637/
Trader Joe's Ardmore (635),40.0072791,-75.2865954,112 Coulter Ave,Ardmore,PA,19003,610-658-0645,https://locations.traderjoes.com/pa/ardmore/635/
Trader Joe's State College (629),40.8103369,-77.9022379,243 Patriot Lane,State College,PA,16803,814-234-2224,https://locations.traderjoes.com/pa/state-college/629/
Trader Joe's North Wales (639),40.2086106,-75.2232375,1460 Bethlehem Pike,North Wales,PA,19454,215-646-5870,https://locations.traderjoes.com/pa/north-wales/639/
Trader Joe's Wayne (632),40.0733503,-75.43356729999999,171 E Swedesford Rd,Wayne,PA,19087,610-225-0925,https://locations.traderjoes.com/pa/wayne/632/
Trader Joe's Columbia (753),34.0200278,-80.9726801,4516 Forest Drive,Columbia,SC,29206,803-790-2404,https://locations.traderjoes.com/sc/columbia/753/
Trader Joe's Greenville (751),34.8290454,-82.3056746,59 Woodruff Industrial Ln,Greenville,SC,29607,864-286-0231,https://locations.traderjoes.com/sc/greenville/751/
Trader Joe's Mt. Pleasant (752),32.8048074,-79.8871846,401 Johnnie Dodds Blvd,Mt. Pleasant,SC,29464,843-884-4037,https://locations.traderjoes.com/sc/mt.-pleasant/752/
Trader Joe's Glendale (711),43.1189323,-87.9162927,5600 N Port Washington Rd,Milwaukee,WI,53217,414-962-3382,https://locations.traderjoes.com/wi/milwaukee/711/
Trader Joe's Madison (712),43.0649866,-89.4175436,1810 Monroe St,Madison,WI,53711,608-257-1916,https://locations.traderjoes.com/wi/madison/712/
Trader Joe's Brookfield (726),43.0356775,-88.07015009999999,12665 W. Bluemound Rd,Brookfield,WI,53005,262-784-4806,https://locations.traderjoes.com/wi/brookfield/726/
Trader Joe's Silver Spring (652),39.0313332,-77.0035012,10741 Columbia Pike,Silver Spring,MD,20901,301-681-1675,https://locations.traderjoes.com/md/silver-spring/652/
Trader Joe's North Potomac (648),39.0965016,-77.2067817,10076 Darnestown Rd,Rockville,MD,20850,301-762-0782,https://locations.traderjoes.com/md/rockville/648/
Trader Joe's Rockville (642),39.0570549,-77.1223481,12268-H Rockville Pike,Rockville,MD,20852,301-468-6656,https://locations.traderjoes.com/md/rockville/642/
Trader Joe's Towson (649),39.4115221,-76.61825569999999,800 Kenilworth Drive,Towson,MD,21204,410-321-0276,https://locations.traderjoes.com/md/towson/649/
Trader Joe's Annapolis (650),38.9889202,-76.54024299999999,160 F Jennifer Rd,Annapolis,MD,21401,410-573-0505,https://locations.traderjoes.com/md/annapolis/650/
Trader Joe's Columbia (658),39.1883169,-76.79563739999999,6610 Marie Curie Dr,Elkridge,MD,21075,410-953-8139,https://locations.traderjoes.com/md/elkridge/658/
Trader Joe's College Park (758),38.9780847,-76.9382195,4429 Calvert Road,College Park,MD,20740,301-985-3704,https://locations.traderjoes.com/md/college-park/758/
Trader Joe's Pikesville (655),39.3881322,-76.73608709999999,1809 Reisterstown Rd,Pikesville,MD,21208,410-484-8373,https://locations.traderjoes.com/md/pikesville/655/
Trader Joe's Bethesda - Downtown (623),38.98973300000001,-77.0955683,7900 Wisconsin Ave,Bethesda,MD,20814,301-215-7913,https://locations.traderjoes.com/md/bethesda/623/
Trader Joe's Bethesda (645),38.978257,-77.0905313,6831 Wisconsin Ave,Bethesda,MD,20815,301-907-0982,https://locations.traderjoes.com/md/bethesda/645/
Trader Joe's Coral Springs (782),26.2645827,-80.25069119999999,2796 N. University Drive,Coral Springs,FL,33065,954-227-3407,https://locations.traderjoes.com/fl/coral-springs/782/
Trader Joe's Jacksonville Beach (760),30.2569383,-81.3898162,4180 S 3rd St,Jacksonville Beach,FL,32250,904-241-1770,https://locations.traderjoes.com/fl/jacksonville-beach/760/
Trader Joe's Pinecrest (770),25.6844128,-80.3125713,9205 S Dixie Hwy,Miami,FL,33156,305-661-1432,https://locations.traderjoes.com/fl/miami/770/
Trader Joe's Miami - Midtown (794),25.8066417,-80.192953,3191 NE 1st Ave,Miami,FL,33137,786-422-0606,https://locations.traderjoes.com/fl/miami/794/
Trader Joe's Coral Gables (781),25.7293608,-80.2580989,211 S. Dixie Highway,Coral Gables,FL,33133,305-442-5402,https://locations.traderjoes.com/fl/coral-gables/781/
Trader Joe's Palm Beach Gardens (772),26.8437756,-80.0741839,2560 PGA Blvd,Palm Beach Gardens,FL,33410,561-514-6455,https://locations.traderjoes.com/fl/palm-beach-gardens/772/
Trader Joe's Pembroke Pines (775),26.0058489,-80.3107778,11960 Pines Blvd,Pembroke Pines,FL,33026,954-432-0405,https://locations.traderjoes.com/fl/pembroke-pines/775/
Trader Joe's St. Petersburg (767),27.7974016,-82.63882749999999,2742 4th St N,St. Petersburg,FL,33704,727-824-0907,https://locations.traderjoes.com/fl/st.-petersburg/767/
Trader Joe's Sarasota (761),27.2947687,-82.5300122,4101 S Tamiami Trail,Sarasota,FL,34231,941-922-5727,https://locations.traderjoes.com/fl/sarasota/761/
Trader Joe's Tampa (766),27.9373012,-82.5062792,3808 W Swann Ave,Tampa,FL,33609,813-872-6846,https://locations.traderjoes.com/fl/tampa/766/
Trader Joe's Naples (762),26.2681317,-81.8005297,10600 Tamiami Trail N,Naples,FL,34108,239-596-5631,https://locations.traderjoes.com/fl/naples/762/
Trader Joe's Jacksonville (769),30.1750641,-81.6299232,11112 San Jose Blvd,Jacksonville,FL,32223,904-880-0582,https://locations.traderjoes.com/fl/jacksonville/769/
Trader Joe's Boca Raton (773),26.3420987,-80.0864474,855 S Federal Hwy,Boca Raton,FL,33432,561-338-5031,https://locations.traderjoes.com/fl/boca-raton/773/
Trader Joe's Winter Park (765),28.5982197,-81.36556139999999,131 Orlando Ave.,Winter Park,FL,32789,407-622-0874,https://locations.traderjoes.com/fl/winter-park/765/
Trader Joe's Tallahassee (763),30.5040515,-84.2506602,3425 Thomasville Rd,Tallahassee,FL,32309,850-894-2538,https://locations.traderjoes.com/fl/tallahassee/763/
Trader Joe's Gainesville (764),29.6232817,-82.37997879999999,3724 SW Archer Rd,Gainesville,FL,32608,352-378-9321,https://locations.traderjoes.com/fl/gainesville/764/
Trader Joe's Orlando Dr. Phillips (768),28.4503045,-81.4965868,8323 Sand Lake Rd,Orlando,FL,32819,407-345-0611,https://locations.traderjoes.com/fl/orlando/768/
Trader Joe's Fort Lauderdale (776),26.14812,-80.11899869999999,1560 N Federal Hwy,Fort Lauderdale,FL,33304,954-537-3585,https://locations.traderjoes.com/fl/fort-lauderdale/776/
Trader Joe's Fort Myers (784),26.5871679,-81.86964309999999,4983 S. Cleveland Avenue,Fort Myers,FL,33907,239-275-1712,https://locations.traderjoes.com/fl/fort-myers/784/
Trader Joe's Davie (778),26.0928399,-80.2519958,2296 S University Dr,Davie,FL,33324,954-512-2968,https://locations.traderjoes.com/fl/davie/778/
Trader Joe's Miami Beach (779),25.7918712,-80.1423154,1683 West Ave,Miami Beach,FL,33139,305-534-4951,https://locations.traderjoes.com/fl/miami-beach/779/
Trader Joe's Lakewood Ranch (780),27.3899003,-82.4523419,8111 Cooper Creek Blvd,Bradenton,FL,34201,941-355-2394,https://locations.traderjoes.com/fl/bradenton/780/
Trader Joe's Delray Beach (771),26.4389112,-80.0701042,1851 S Federal Highway #500,Delray Beach,FL,33483,561-278-1493,https://locations.traderjoes.com/fl/delray-beach/771/
Trader Joe's Wellington (774),26.6367416,-80.2055644,2877 South State Rd 7,Wellington,FL,33414,561-656-1067,https://locations.traderjoes.com/fl/wellington/774/
Trader Joe's Leawood (723),38.912425,-94.6357532,4201 W 119th St,Leawood,KS,66209,913-327-7209,https://locations.traderjoes.com/ks/leawood/723/
Trader Joe's Wichita (729),37.7162774,-97.2437526,1800 N. Rock Road,Wichita,KS,67206,316-634-1846,https://locations.traderjoes.com/ks/wichita/729/
Trader Joe's Tulsa (460),36.1096067,-95.975934,3702 S Peoria Ave,Tulsa,OK,74105,918-712-9768,https://locations.traderjoes.com/ok/tulsa/460/
Trader Joe's Oklahoma City - Nichols Hills (461),35.5376946,-97.53105950000001,6409 Avondale Dr,Nichols Hills,OK,73116,405-843-5655,https://locations.traderjoes.com/ok/nichols-hills/461/
Trader Joe's Rochester (718),44.0003608,-92.48125499999999,1200 16th St SW,Rochester,MN,55902,507-281-4411,https://locations.traderjoes.com/mn/rochester/718/
Trader Joe's Bloomington (724),44.85919699999999,-93.33234589999999,4270 W 78th St,Bloomington,MN,55435,952-835-8640,https://locations.traderjoes.com/mn/bloomington/724/
Trader Joe's Maple Grove (713),45.0921896,-93.4340902,12105 Elm Creek Blvd N,Maple Grove,MN,55369,763-315-1739,https://locations.traderjoes.com/mn/maple-grove/713/
Trader Joe's Woodbury (715),44.945734,-92.9226673,8960 Hudson Rd. Ste. 801,Woodbury,MN,55125,651-735-0269,https://locations.traderjoes.com/mn/woodbury/715/
Trader Joe's St. Paul (716),44.926705,-93.1459022,484 Lexington Pkwy S,St. Paul,MN,55105,651-698-3119,https://locations.traderjoes.com/mn/st.-paul/716/
Trader Joe's Shoreview (727),45.0579892,-93.144728,1041 Red Fox Rd,Shoreview,MN,55126,651-765-1398,https://locations.traderjoes.com/mn/shoreview/727/
Trader Joe's Minneapolis (725),44.97705560000001,-93.2576606,721 Washington Ave S,Minneapolis,MN,55415,612-339-2110,https://locations.traderjoes.com/mn/minneapolis/725/
Trader Joe's St. Louis Park (710),44.93459199999999,-93.33739899999999,4500 Excelsior Blvd,St. Louis Park,MN,55416,952-285-1053,https://locations.traderjoes.com/mn/st.-louis-park/710/
Trader Joe's Eagan (717),44.790337,-93.212887,2065 Cliff Road,Eagan,MN,55122,651-362-4841,https://locations.traderjoes.com/mn/eagan/717/
Trader Joe's Minnetonka (714),44.9734888,-93.4227576,11220 Wayzata Blvd,Minnetonka,MN,55305,952-417-9080,https://locations.traderjoes.com/mn/minnetonka/714/
Trader Joe's Bend (150),44.1010627,-121.3022976,63455 N Hwy 97,Bend,OR,97701,541-312-4198,https://locations.traderjoes.com/or/bend/150/
Trader Joe's Salem (153),44.88960669999999,-123.0325549,4450 Commercial St SE,Salem,OR,97302,503-378-9042,https://locations.traderjoes.com/or/salem/153/
Trader Joe's Eugene (145),44.0662723,-123.0752647,85 Oakway Center,Eugene,OR,97401,541-485-1744,https://locations.traderjoes.com/or/eugene/145/
Trader Joe's Medford (155),42.3434878,-122.8822438,55 Rossanley Dr,Medford,OR,97501,541-608-4993,https://locations.traderjoes.com/or/medford/155/
Trader Joe's Tigard (169),45.4036566,-122.7965719,16200 SW Pacific Hwy,Tigard,OR,97224,503-443-6713,https://locations.traderjoes.com/or/tigard/169/
Trader Joe's Lake Oswego (142),45.4138108,-122.7432923,15391 SW Bangy Rd,Lake Oswego,OR,97035,503-639-3238,https://locations.traderjoes.com/or/lake-oswego/142/
Trader Joe's Hillsboro (149),45.5366231,-122.8696106,2285 NW 185th Ave,Hillsboro,OR,97124,503-645-8321,https://locations.traderjoes.com/or/hillsboro/149/
Trader Joe's Corvallis (154),44.5822604,-123.2599744,1550 NW 9th St,Corvallis,OR,97330,541-753-0048,https://locations.traderjoes.com/or/corvallis/154/
Trader Joe's Clackamas (152),45.4558588,-122.5807379,9345 SE 82nd Ave,Clackamas,OR,97086,503-771-6300,https://locations.traderjoes.com/or/clackamas/152/
Trader Joe's Portland SE (143),45.4888244,-122.6235486,4715 SE Cesar Chavez Blvd,Portland,OR,97202,503-777-1601,https://locations.traderjoes.com/or/portland/143/
Trader Joe's Portland - Hollywood (144),45.5347161,-122.6208153,4121 NE Halsey St,Portland,OR,97232,503-284-4232,https://locations.traderjoes.com/or/portland/144/
Trader Joe's Portland NW (146),45.5261013,-122.6951618,2122 NW Glisan St,Portland,OR,97210,971-544-0788,https://locations.traderjoes.com/or/portland/146/
Trader Joe's Southwest Portland (168),45.466225,-122.750884,7215 SW Garden Home Road,Portland,OR,97223,503-244-4625,https://locations.traderjoes.com/or/portland/168/
Trader Joe's Beaverton (141),45.488029,-122.797606,11753 SW Beaverton Hillsdale Hwy,Beaverton,OR,97005,503-626-3794,https://locations.traderjoes.com/or/beaverton/141/
Trader Joe's Florham Park (604),40.7888356,-74.39225789999999,176 Columbia Turnpike,Florham Park,NJ,07932,973-377-0679,https://locations.traderjoes.com/nj/florham-park/604/
Trader Joe's Westfield (601),40.6522247,-74.3499954,155 Elm St,Westfield,NJ,07090,908-301-0910,https://locations.traderjoes.com/nj/westfield/601/
Trader Joe's Hoboken (611),40.753623,-74.0300623,1350 Willow Ave.,Hoboken,NJ,07030,201-714-4790,https://locations.traderjoes.com/nj/hoboken/611/
Trader Joe's Marlton (631),39.8895166,-74.9238457,300 P Route 73 S,Marlton,NJ,08053,856-988-3323,https://locations.traderjoes.com/nj/marlton/631/
Trader Joe's Bridgewater (614),40.5636986,-74.5565024,315 Promenade Blvd,Bridgewater,NJ,08807,732-805-0268,https://locations.traderjoes.com/nj/bridgewater/614/
Trader Joe's Paramus (605),40.9483179,-74.0705862,404 Rt 17 N,Paramus,NJ,07652,201-265-9624,https://locations.traderjoes.com/nj/paramus/605/
Trader Joe's North Brunswick (612),40.4628556,-74.45924959999999,869 US-1,North Brunswick,NJ,08902,732-993-1403,https://locations.traderjoes.com/nj/north-brunswick/612/
Trader Joe's Clifton (610),40.8365328,-74.151292,259 Allwood Road,Clifton,NJ,07012,973-777-5020,https://locations.traderjoes.com/nj/clifton/610/
Trader Joe's Westwood (602),40.9931665,-74.0359789,20 Irvington St,Westwood,NJ,07675,201-263-0134,https://locations.traderjoes.com/nj/westwood/602/
Trader Joe's Millburn (609),40.7233247,-74.29582780000001,187 Millburn Ave,Millburn,NJ,07041,973-218-0912,https://locations.traderjoes.com/nj/millburn/609/
Trader Joe's Edgewater (606),40.8196686,-73.9775851,715 River Rd,Edgewater,NJ,07020,201-945-5932,https://locations.traderjoes.com/nj/edgewater/606/
Trader Joe's Shrewsbury (608),40.3161376,-74.0609307,1031 Broad St,Shrewsbury,NJ,07702,732-389-2535,https://locations.traderjoes.com/nj/shrewsbury/608/
Trader Joe's Denville (617),40.8661795,-74.5063192,3056 State Route 10 West,Denville,NJ,07834,973-537-3672,https://locations.traderjoes.com/nj/denville/617/
Trader Joe's Cherry Hill (613),39.9290357,-75.03309519999999,775 Haddonfield Rd,Cherry Hill,NJ,08002,856-488-0801,https://locations.traderjoes.com/nj/cherry-hill/613/
Trader Joe's Princeton (607),40.31060240000001,-74.6611769,3528 Brunswick Pike,Princeton,NJ,08540,609-897-0581,https://locations.traderjoes.com/nj/princeton/607/
Trader Joe's Middletown (591) *Coming 2024*,40.4030542,-74.12248199999999,1425 NJ-35,Middletown Township,NJ,07748,,https://locations.traderjoes.com/nj/middletown-township/591/
Trader Joe's Wayne (603),40.9593768,-74.23044449999999,910 Hamburg Turnpike,Wayne,NJ,07470,973-872-4604,https://locations.traderjoes.com/nj/wayne/603/
Trader Joe's Freehold (590),40.2818476,-74.2922531,4331 Route 9 Unit 3,Freehold,NJ,07728,732-462-1539,https://locations.traderjoes.com/nj/freehold/590/
Trader Joe's Brick (615),40.0575937,-74.1418485,110 Brick Plaza,Brick,NJ,08723,732-477-4781,https://locations.traderjoes.com/nj/brick/615/
Trader Joe's Warwick (518),41.7123644,-71.4872227,1000 Bald Hill Rd,Warwick,RI,02886,401-821-5368,https://locations.traderjoes.com/ri/warwick/518/
Trader Joe's Providence (572),41.8182643,-71.4002967,425 S Main St,Providence,RI,02903,401-459-4090,https://locations.traderjoes.com/ri/providence/572/
Trader Joe's Roswell (733),34.0593442,-84.3796266,635 W Crossville Rd,Roswell,GA,30075,770-645-8505,https://locations.traderjoes.com/ga/roswell/733/
Trader Joe's Sandy Springs (731),33.9262448,-84.3780993,6277 Roswell Road NE,Sandy Springs,GA,30328,404-236-2414,https://locations.traderjoes.com/ga/sandy-springs/731/
Trader Joe's Marietta (732),33.9836203,-84.4260884,4250 Roswell Road,Marietta,GA,30062,678-560-3585,https://locations.traderjoes.com/ga/marietta/732/
Trader Joe's Athens (736),33.9158775,-83.44392909999999,1850 Epps Bridge Pkwy,Athens,GA,30606,706-583-8934,https://locations.traderjoes.com/ga/athens/736/
Trader Joe's Atlanta (730),33.7803991,-84.3684454,931 Monroe Dr,Atlanta,GA,30308,404-815-9210,https://locations.traderjoes.com/ga/atlanta/730/
Trader Joe's Buckhead (735),33.8409526,-84.3749866,3183 Peachtree Rd,Atlanta,GA,30305,404-842-0907,https://locations.traderjoes.com/ga/atlanta/735/
Trader Joe's Norcross - Peachtree Corners (734),33.979296,-84.21988499999999,5185 Peachtree Pkwy,Norcross,GA,30092,678-966-9236,https://locations.traderjoes.com/ga/norcross/734/
Trader Joe's Huntsville (785),34.7402717,-86.6655025,1100 Mid City Dr NW,Huntsville,AL,35806,256-890-7156,https://locations.traderjoes.com/al/huntsville/785/
Trader Joe's Birmingham (737),33.4464461,-86.7296136,"205 Summit Blvd, Suite 100",Birmingham,AL,35243,205-969-7801,https://locations.traderjoes.com/al/birmingham/737/
Trader Joe's Orem (352),40.27639690000001,-111.6848172,440 East Park Avenue,Orem,UT,84097,801-224-1453,https://locations.traderjoes.com/ut/orem/352/
Trader Joe's Cottonwood Heights (351),40.6241078,-111.8537251,6989 S 1300 E,Cottonwood Heights,UT,84047,801-562-3024,https://locations.traderjoes.com/ut/cottonwood-heights/351/
Trader Joe's Draper (353),40.5432697,-111.8910624,11477 S. State St.,Draper,UT,84020,801-571-0987,https://locations.traderjoes.com/ut/draper/353/
Trader Joe's Salt Lake City (350),40.7596686,-111.8726019,634 East 400 South,Salt Lake City,UT,84102,801-359-2462,https://locations.traderjoes.com/ut/salt-lake-city/350/
Trader Joe's Portland (519),43.66181479999999,-70.2646208,87 Marginal Way,Portland,ME,04101,207-699-3799,https://locations.traderjoes.com/me/portland/519/
Trader Joe's Glendale (85),33.6393288,-112.2265726,7720 West Bell Rd,Glendale,AZ,85308,623-776-7414,https://locations.traderjoes.com/az/glendale/85/
Trader Joe's Prescott (283),34.5486805,-112.4054443,252 N Lee Blvd,Prescott,AZ,86303,928-443-9075,https://locations.traderjoes.com/az/prescott/283/
Trader Joe's Oro Valley (96),32.3505126,-110.9731792,7912 N Oracle,Oro Valley,AZ,85704,520-797-4207,https://locations.traderjoes.com/az/oro-valley/96/
Trader Joe's Queen Creek (286),33.2559134,-111.6402518,21186 S. Ellsworth Loop Rd,Queen Creek,AZ,85142,480-877-7213,https://locations.traderjoes.com/az/queen-creek/286/
Trader Joe's Mesa (89),33.3811965,-111.7869797,2050 E Baseline Rd,Mesa,AZ,85204,480-632-0951,https://locations.traderjoes.com/az/mesa/89/
Trader Joe's Surprise (92),33.6513787,-112.3673991,14095 W Grand Ave,Surprise,AZ,85374,623-546-1640,https://locations.traderjoes.com/az/surprise/92/
Trader Joe's Tucson - Campbell & Limberlost (191),32.2834981,-110.9447888,4209 N Campbell Ave,Tucson,AZ,85719,520-325-0069,https://locations.traderjoes.com/az/tucson/191/
Trader Joe's Tucson - Crossroads (88),32.2497812,-110.8909436,4766 E Grant Rd,Tucson,AZ,85712,520-323-4500,https://locations.traderjoes.com/az/tucson/88/
Trader Joe's Tucson (95),32.2371687,-110.8589241,1101 N Wilmot Rd,Tucson,AZ,85712,520-733-1313,https://locations.traderjoes.com/az/tucson/95/
Trader Joe's Gilbert (SanTan) (285),33.3064389,-111.7517046,1779 E. Williams Field Rd.,Gilbert,AZ,85295,480-857-9878,https://locations.traderjoes.com/az/gilbert/285/
Trader Joe's ASU (91),33.4223269,-111.9248153,940 E. University Drive,Tempe,AZ,85281,480-303-9974,https://locations.traderjoes.com/az/tempe/91/
Trader Joe's Tempe (93),33.3618135,-111.9122475,6460 S McClintock Dr,Tempe,AZ,85283,480-838-4142,https://locations.traderjoes.com/az/tempe/93/
Trader Joe's Scottsdale (94),33.5294368,-111.9275797,6202 N Scottsdale Rd,Scottsdale,AZ,85253,480-948-9886,https://locations.traderjoes.com/az/scottsdale/94/
Trader Joe's N Scottsdale (87),33.6358737,-111.9171545,7555 E Frank Lloyd Wright,Scottsdale,AZ,85260,480-367-8920,https://locations.traderjoes.com/az/scottsdale/87/
Trader Joe's Paradise Valley (282),33.5833102,-111.9790307,4726 East Shea Blvd,Phoenix,AZ,85028,602-485-7788,https://locations.traderjoes.com/az/phoenix/282/
Trader Joe's Phoenix - Town & Country (90),33.5071515,-112.0377957,4821 N 20th St,Phoenix,AZ,85016,602-912-9022,https://locations.traderjoes.com/az/phoenix/90/
Trader Joe's Ahwatukee (177),33.30407960000001,-111.9945018,4025 E Chandler Blvd,Phoenix,AZ,85048,480-759-2295,https://locations.traderjoes.com/az/phoenix/177/
Trader Joe's Greenwood Village (303),39.6091971,-104.9573526,"5910 S University Blvd, Suite E1",Greenwood Village,CO,80121,303-730-3848,https://locations.traderjoes.com/co/greenwood-village/303/
Trader Joe's Denver (302),39.7268649,-104.9827877,661 Logan Street,Denver,CO,80203,303-318-7112,https://locations.traderjoes.com/co/denver/302/
Trader Joe's Denver  Wine Shop (310),39.740549,-104.9407695,790 N Colorado Blvd,Denver,CO,80206,303-321-3245,https://locations.traderjoes.com/co/denver/310/
Trader Joe's Denver Grocery (300),39.7288282,-104.9402543,750 N Colorado Blvd,Denver,CO,80206,303-321-1003,https://locations.traderjoes.com/co/denver/300/
Trader Joe's Colorado Springs (305),38.9072763,-104.8172815,5342 N Nevada Ave,Colorado Springs,CO,80918,719-264-0123,https://locations.traderjoes.com/co/colorado-springs/305/
Trader Joe's Colorado Springs  Wine Shop (315),38.9073373,-104.8176367,5338 N Nevada Avenue,Colorado Springs,CO,80918,719-266-6838,https://locations.traderjoes.com/co/colorado-springs/315/
Trader Joe's Littleton (306),39.611724,-105.0888051,8055 West Bowles Ave,Littleton,CO,80123,720-981-4563,https://locations.traderjoes.com/co/littleton/306/
Trader Joe's Boulder (301),40.0202684,-105.2578411,1906 28th St,Boulder,CO,80301,303-443-0160,https://locations.traderjoes.com/co/boulder/301/
Trader Joe's Parker (309),39.5563188,-104.7776188,18374 Cottonwood Drive #150,Parker,CO,80138,720-851-0549,https://locations.traderjoes.com/co/parker/309/
Trader Joe's Fort Collins (304),40.5393421,-105.0752866,"3500 S College Ave, Ste 110",Fort Collins,CO,80525,970-223-3560,https://locations.traderjoes.com/co/fort-collins/304/
Trader Joe's Orange (524),41.25081249999999,-73.0188747,560 Boston Post Rd,Orange,CT,06477,203-795-5505,https://locations.traderjoes.com/ct/orange/524/
Trader Joe's Manchester (563),41.8067497,-72.5576549,1510 Pleasant Valley Road,Manchester,CT,06042,860-644-3182,https://locations.traderjoes.com/ct/manchester/563/
Trader Joe's Fairfield (523),41.1832041,-73.25317679999999,2258 Black Rock Turnpike,Fairfield,CT,06825,203-330-8301,https://locations.traderjoes.com/ct/fairfield/523/
Trader Joe's Glastonbury (586),41.71347009999999,-72.5998159,400 Hebron Ave,Glastonbury,CT,06033,860-633-9270,https://locations.traderjoes.com/ct/glastonbury/586/
Trader Joe's Westport (521),41.1398413,-73.3519417,400 Post Road E,Westport,CT,06880,203-226-8966,https://locations.traderjoes.com/ct/westport/521/
Trader Joe's Darien (522),41.0844564,-73.4617098,436 Boston Post Rd,Darien,CT,06820,203-656-1414,https://locations.traderjoes.com/ct/darien/522/
Trader Joe's Danbury (525),41.3932099,-73.5215003,113 Mill Plain Rd,Danbury,CT,06811,203-739-0098,https://locations.traderjoes.com/ct/danbury/525/
Trader Joe's West Hartford (526),41.7234546,-72.7580182,1489 New Britain Ave,West Hartford,CT,06110,860-561-4771,https://locations.traderjoes.com/ct/west-hartford/526/
Trader Joe's Stamford (529),41.1068964,-73.5473117,1041 High Ridge Rd,Stamford,CT,06905,203-321-8440,https://locations.traderjoes.com/ct/stamford/529/
Trader Joe's Carson City (281),39.0735709,-119.7795799,3790 US Hwy 395 S,Carson City,NV,89705,775-267-2486,https://locations.traderjoes.com/nv/carson-city/281/
Trader Joe's Anthem (280),36.0008721,-115.1093337,10345 S Eastern Ave,Henderson,NV,89052,702-407-8673,https://locations.traderjoes.com/nv/henderson/280/
Trader Joe's Henderson (97),36.0695804,-115.0811185,2716 N Green Valley Pkwy,Henderson,NV,89014,702-433-6773,https://locations.traderjoes.com/nv/henderson/97/
Trader Joe's Reno (82),39.4787891,-119.7839949,5035 S McCarran Blvd,Reno,NV,89502,775-826-1621,https://locations.traderjoes.com/nv/reno/82/
Trader Joe's Las Vegas - Summerlin (86),36.1805714,-115.2581825,7575 W Washington,Las Vegas,NV,89128,702-242-8240,https://locations.traderjoes.com/nv/las-vegas/86/
Trader Joe's Las Vegas - Centennial Hills (98),36.26356000000001,-115.25755,5639 Centennial Ctr Blvd,Las Vegas,NV,89149,702-396-3372,https://locations.traderjoes.com/nv/las-vegas/98/
Trader Joe's Las Vegas - Downtown Summerlin (284),36.1455347,-115.3354852,2315 Summa Dr Ste 100,Las Vegas,NV,89135,702-242-0597,https://locations.traderjoes.com/nv/las-vegas/284/
